{
"type": "FeatureCollection",
"name": "marine_aoi",
"crs": { "type": "name", "properties": { "name": "urn:ogc:def:crs:OGC:1.3:CRS84" } },
"features": [
{ "type": "Feature", "properties": { "Name": "Marine AOI", "Area": 35.64, "Descriptio": "Area of interest for Earth Observation Imagery; Terrestrial and Marine" }, "geometry": { "type": "MultiPolygon", "coordinates": [ [ [ [ 120.015180289000114, 12.004797903000167, 0.0 ], [ 120.014978772561392, 12.004460408526933, 0.0 ], [ 120.014698334437171, 12.004141985322505, 0.0 ], [ 120.014616005718679, 12.004110782747743, 0.0 ], [ 120.014516761564749, 12.004141985315252, 0.0 ], [ 120.014471883148801, 12.004214389653272, 0.0 ], [ 120.014380440502407, 12.004221928503725, 0.0 ], [ 120.01405502582918, 12.004214788501578, 0.0 ], [ 120.013979682464495, 12.004141985297485, 0.0 ], [ 120.013575780883102, 12.004039458324467, 0.0 ], [ 120.013053765055247, 12.004038823486992, 0.0 ], [ 120.013013712573837, 12.004028606669644, 0.0 ], [ 120.0129915354741, 12.003962322257514, 0.0 ], [ 120.012901703462532, 12.003872490253677, 0.0 ], [ 120.012811872450939, 12.00378265924984, 0.0 ], [ 120.012516213581492, 12.003735810587351, 0.0 ], [ 120.012423805674374, 12.003656533168357, 0.0 ], [ 120.012362714411907, 12.003423332230906, 0.0 ], [ 120.012183051400257, 12.003333501223485, 0.0 ], [ 120.011913556395982, 12.003243669212473, 0.0 ], [ 120.011706151072573, 12.003230821054697, 0.0 ], [ 120.011615479522831, 12.00322012897457, 0.0 ], [ 120.011534225705191, 12.003191127010913, 0.0 ], [ 120.011490463389563, 12.003148909075827, 0.0 ], [ 120.01146051944589, 12.003089871211351, 0.0 ], [ 120.011374567360605, 12.002884343189967, 0.0 ], [ 120.011284736331916, 12.002704680185879, 0.0 ], [ 120.011060157293471, 12.002435186176164, 0.0 ], [ 120.010835578272108, 12.002255523166699, 0.0 ], [ 120.010655915235532, 12.001986028158786, 0.0 ], [ 120.010566083222102, 12.00189619615495, 0.0 ], [ 120.010296589202554, 12.001716533143698, 0.0 ], [ 120.010206757190986, 12.001626702139861, 0.0 ], [ 120.010085433251035, 12.0015652639494, 0.0 ], [ 120.010027094182092, 12.001536870128758, 0.0 ], [ 120.009989676654754, 12.001526721057827, 0.0 ], [ 120.009946580307115, 12.001524358257575, 0.0 ], [ 120.009888030798692, 12.001526684486281, 0.0 ], [ 120.009845522816136, 12.001536870121511, 0.0 ], [ 120.009576027790885, 12.001626702103628, 0.0 ], [ 120.009396364754963, 12.001806365104342, 0.0 ], [ 120.009306533719027, 12.001986028101253, 0.0 ], [ 120.009126870696505, 12.002075860086952, 0.0 ], [ 120.009037038677661, 12.002165691090996, 0.0 ], [ 120.00885737565514, 12.002255523076702, 0.0 ], [ 120.00858788062898, 12.002345354058821, 0.0 ], [ 120.008493306314264, 12.002382158235587, 0.0 ], [ 120.008395677451404, 12.002385005685708, 0.0 ], [ 120.008305289583049, 12.002382384087078, 0.0 ], [ 120.008230464392909, 12.002345354063019, 0.0 ], [ 120.007960969388577, 12.002255523004047, 0.0 ], [ 120.007599374682272, 12.002233912342492, 0.0 ], [ 120.007240407589634, 12.002255522975315, 0.0 ], [ 120.007150576570766, 12.002345354016274, 0.0 ], [ 120.007095885328539, 12.002401906324684, 0.0 ], [ 120.007060744555574, 12.00243518601294, 0.0 ], [ 120.006881081470311, 12.002884343007025, 0.0 ], [ 120.006805773849763, 12.003047244149149, 0.0 ], [ 120.006723673452314, 12.003133486407748, 0.0 ], [ 120.006431924404552, 12.003153837967727, 0.0 ], [ 120.006402339560225, 12.003210620388698, 0.0 ], [ 120.006345787629016, 12.003213924024774, 0.0 ], [ 120.005973562170922, 12.003228708347885, 0.0 ], [ 120.00544377734839, 12.003243668921215, 0.0 ], [ 120.005353945337149, 12.00328858494729, 0.0 ], [ 120.005084451319576, 12.003333500921913, 0.0 ], [ 120.005061009048674, 12.003408338269457, 0.0 ], [ 120.004967039898062, 12.003412043796061, 0.0 ], [ 120.004725125289781, 12.003423331900466, 0.0 ], [ 120.004635293270937, 12.003513163919289, 0.0 ], [ 120.00454546225204, 12.003602995915953, 0.0 ], [ 120.004455630233167, 12.003692826912626, 0.0 ], [ 120.004365799214312, 12.003782658909298, 0.0 ], [ 120.004359660857787, 12.003826949027335, 0.0 ], [ 120.004344003907747, 12.003855420698878, 0.0 ], [ 120.004314428622791, 12.003863375939657, 0.0 ], [ 120.004274724925011, 12.003863353320014, 0.0 ], [ 120.004096720316554, 12.003861222674409, 0.0 ], [ 120.00385165345638, 12.003861160224314, 0.0 ], [ 120.003841415494335, 12.003843299784952, 0.0 ], [ 120.003835179718351, 12.003815961866563, 0.0 ], [ 120.003828719814834, 12.003782658880528, 0.0 ], [ 120.003680613877847, 12.003768013430639, 0.0 ], [ 120.003557315183443, 12.003782658869717, 0.0 ], [ 120.003524784841034, 12.003892076844375, 0.0 ], [ 120.00348498830617, 12.003924851166214, 0.0 ], [ 120.003377652143868, 12.003962321863066, 0.0 ], [ 120.003287820124996, 12.004052152867121, 0.0 ], [ 120.00326794237462, 12.004105988683186, 0.0 ], [ 120.00323305562101, 12.00412882649627, 0.0 ], [ 120.003108157102503, 12.004141984852836, 0.0 ], [ 120.003063241084504, 12.004231815862367, 0.0 ], [ 120.003018326075107, 12.004276731860701, 0.0 ], [ 120.002989808079477, 12.004292948775003, 0.0 ], [ 120.002959332504886, 12.004302036714959, 0.0 ], [ 120.002927445683028, 12.004307321089851, 0.0 ], [ 120.002821200495603, 12.004315201179123, 0.0 ], [ 120.002663734234716, 12.004313298346117, 0.0 ], [ 120.002277597590023, 12.004308460019468, 0.0 ], [ 120.001892492893802, 12.004314392352743, 0.0 ], [ 120.00180118134908, 12.00431088016955, 0.0 ], [ 120.001583928528419, 12.004308720125907, 0.0 ], [ 120.00153801599032, 12.004276731801788, 0.0 ], [ 120.001493099984515, 12.004231815788804, 0.0 ], [ 120.001354599652799, 12.004205156379179, 0.0 ], [ 120.001313436977441, 12.004141984792479, 0.0 ], [ 120.001223605965833, 12.004052152788656, 0.0 ], [ 120.001160122724784, 12.004028001434923, 0.0 ], [ 120.000371565180089, 12.004037800063415, 0.0 ], [ 120.000274797815123, 12.004036142952952, 0.0 ], [ 120.000235458990559, 12.003962321749096, 0.0 ], [ 120.000055795982561, 12.003872489741708, 0.0 ], [ 119.999947890811924, 12.003826746764661, 0.0 ], [ 119.999876132974606, 12.003782658734314, 0.0 ], [ 119.999786300969689, 12.003737742730614, 0.0 ], [ 119.999696469965684, 12.003692826715847, 0.0 ], [ 119.999636102902414, 12.003675188209179, 0.0 ], [ 119.999569419512426, 12.003669119520708, 0.0 ], [ 119.999493661407158, 12.003673324339614, 0.0 ], [ 119.999408891150466, 12.003693455416446, 0.0 ], [ 119.999359784448544, 12.003718857307828, 0.0 ], [ 119.999155570003694, 12.003782658687207, 0.0 ], [ 119.998975906981201, 12.003872489687696, 0.0 ], [ 119.998898810748969, 12.003890012998047, 0.0 ], [ 119.998706411956931, 12.003962321669848, 0.0 ], [ 119.998643860572571, 12.00412821802017, 0.0 ], [ 119.99854443472104, 12.004133777033395, 0.0 ], [ 119.998467416713765, 12.004102256129032, 0.0 ], [ 119.998457850964883, 12.003980159202436, 0.0 ], [ 119.998483352514739, 12.003892728693858, 0.0 ], [ 119.998528660029081, 12.003783141304465, 0.0 ], [ 119.998528659998527, 12.003602995680243, 0.0 ], [ 119.998414070285222, 12.003591117753514, 0.0 ], [ 119.998375511659319, 12.003570865169126, 0.0 ], [ 119.998348996990529, 12.003513163672849, 0.0 ], [ 119.998259164985626, 12.003468247665463, 0.0 ], [ 119.998077592012564, 12.003468247658249, 0.0 ], [ 119.998061797191227, 12.003491564910588, 0.0 ], [ 119.998037970191405, 12.003503501246776, 0.0 ], [ 119.997982315388541, 12.003505445811724, 0.0 ], [ 119.997939337836257, 12.003498269170626, 0.0 ], [ 119.997915381136778, 12.003477859941347, 0.0 ], [ 119.997899838953288, 12.003153837635548, 0.0 ], [ 119.997756379505816, 12.003130936525004, 0.0 ], [ 119.997726827882175, 12.003099804937255, 0.0 ], [ 119.997740445774625, 12.003010704813892, 0.0 ], [ 119.99789983891921, 12.002974657320632, 0.0 ], [ 119.998079501883311, 12.002794994313987, 0.0 ], [ 119.998103598156689, 12.002588097859739, 0.0 ], [ 119.998107733811764, 12.002549416888883, 0.0 ], [ 119.998169333830333, 12.002525500318546, 0.0 ], [ 119.998259164811458, 12.002435668315222, 0.0 ], [ 119.99843882777742, 12.002256005308578, 0.0 ], [ 119.998447393530014, 12.002070492214722, 0.0 ], [ 119.998438827716399, 12.001896195671932, 0.0 ], [ 119.998402898112445, 12.001880367965553, 0.0 ], [ 119.998374384768496, 12.001860195633126, 0.0 ], [ 119.998348996701125, 12.00180636466812, 0.0 ], [ 119.998307816833403, 12.001784730970821, 0.0 ], [ 119.998282622301872, 12.001763703916223, 0.0 ], [ 119.9982591646895, 12.00171653264584, 0.0 ], [ 119.998173956436034, 12.001708360213451, 0.0 ], [ 119.998112212927325, 12.001703277685161, 0.0 ], [ 119.998048883970938, 12.00169494631375, 0.0 ], [ 119.998013615286339, 12.001665836004479, 0.0 ], [ 119.997999760224587, 12.001616837151428, 0.0 ], [ 119.997989669671767, 12.001536869653082, 0.0 ], [ 119.997936558686234, 12.001509503406961, 0.0 ], [ 119.997920251555243, 12.001468071968258, 0.0 ], [ 119.997899838631568, 12.001267375648768, 0.0 ], [ 119.997749523499621, 12.001248497453368, 0.0 ], [ 119.997697897420778, 12.00122081805077, 0.0 ], [ 119.997630343625374, 12.001177543637807, 0.0 ], [ 119.997454270457467, 12.001165477962603, 0.0 ], [ 119.997269108371128, 12.001177543608696, 0.0 ], [ 119.997176278748825, 12.001278417059964, 0.0 ], [ 119.997123217483988, 12.001327905054286, 0.0 ], [ 119.997172223396106, 12.001340442461142, 0.0 ], [ 119.997211014885579, 12.0013518496266, 0.0 ], [ 119.997273876671983, 12.001378455116248, 0.0 ], [ 119.997339141000111, 12.001419836000139, 0.0 ], [ 119.997380265000174, 12.001463715000114, 0.0 ], [ 119.997431795000125, 12.001535927000077, 0.0 ], [ 119.997451895671659, 12.001604240941374, 0.0 ], [ 119.997493068463825, 12.001630629712508, 0.0 ], [ 119.997506223964891, 12.001660475290944, 0.0 ], [ 119.99751931837821, 12.001684797676036, 0.0 ], [ 119.997524371694297, 12.001706838894144, 0.0 ], [ 119.997501295673331, 12.001794678687393, 0.0 ], [ 119.997497499096852, 12.001886257419278, 0.0 ], [ 119.997494598587082, 12.001913907746077, 0.0 ], [ 119.997492455932687, 12.001937604344075, 0.0 ], [ 119.997493815982622, 12.001988093507753, 0.0 ], [ 119.99749681393105, 12.002041721597259, 0.0 ], [ 119.997494854557061, 12.002081987771119, 0.0 ], [ 119.99749221587706, 12.002133308920719, 0.0 ], [ 119.99749172857733, 12.002161722499643, 0.0 ], [ 119.99749464185615, 12.002210848064104, 0.0 ], [ 119.99746587277626, 12.002215659895457, 0.0 ], [ 119.997419856728285, 12.002222466141406, 0.0 ], [ 119.9974182980948, 12.00226272802146, 0.0 ], [ 119.997404810327737, 12.002300679592516, 0.0 ], [ 119.997373850825156, 12.0023026605292, 0.0 ], [ 119.997326527789568, 12.002300011320894, 0.0 ], [ 119.997300069770603, 12.002299505811154, 0.0 ], [ 119.997284823935985, 12.002298090992412, 0.0 ], [ 119.997253212932677, 12.002302770001279, 0.0 ], [ 119.99722514727091, 12.002300679592516, 0.0 ], [ 119.997188261393518, 12.00230070429061, 0.0 ], [ 119.997161420078129, 12.00230178111852, 0.0 ], [ 119.99714553419247, 12.002314971894769, 0.0 ], [ 119.99714418427952, 12.00233787087889, 0.0 ], [ 119.997147290580898, 12.002365062264586, 0.0 ], [ 119.997147382896429, 12.002409646622626, 0.0 ], [ 119.997145266398093, 12.002435710308376, 0.0 ], [ 119.997135315742497, 12.002480342649338, 0.0 ], [ 119.997082699524654, 12.002540544946628, 0.0 ], [ 119.997045484214084, 12.002660005706163, 0.0 ], [ 119.996915207241386, 12.002689116760637, 0.0 ], [ 119.996895326935658, 12.00270353402526, 0.0 ], [ 119.996885291453452, 12.00273836292641, 0.0 ], [ 119.996865821157272, 12.002839668762988, 0.0 ], [ 119.996798880908045, 12.002897902475809, 0.0 ], [ 119.996775989628858, 12.002929500291399, 0.0 ], [ 119.996717625706864, 12.002943753276766, 0.0 ], [ 119.996700123682373, 12.002955777679746, 0.0 ], [ 119.996664195970823, 12.002968788681956, 0.0 ], [ 119.996640639091609, 12.002976932367652, 0.0 ], [ 119.99663112148302, 12.002986109269434, 0.0 ], [ 119.996622466449963, 12.003000800777091, 0.0 ], [ 119.99661422088991, 12.003016277017727, 0.0 ], [ 119.996596326572032, 12.003109163348222, 0.0 ], [ 119.996563049383241, 12.003113950821627, 0.0 ], [ 119.996529494748998, 12.003110695955186, 0.0 ], [ 119.996501133234091, 12.003119285685624, 0.0 ], [ 119.996479313376469, 12.003113164187205, 0.0 ], [ 119.99644383534573, 12.003125230224445, 0.0 ], [ 119.996429429187188, 12.003134473585636, 0.0 ], [ 119.996417123238245, 12.003154731048461, 0.0 ], [ 119.996419625433134, 12.003202096733068, 0.0 ], [ 119.996416418698942, 12.003240110020513, 0.0 ], [ 119.996416379724053, 12.003266403537575, 0.0 ], [ 119.996411287621328, 12.003283013023523, 0.0 ], [ 119.9963732020002, 12.003302688000133, 0.0 ], [ 119.996354976000134, 12.003331712999966, 0.0 ], [ 119.996337384089216, 12.003373246129208, 0.0 ], [ 119.996326831986792, 12.00346848946187, 0.0 ], [ 119.99632836965398, 12.003534242362388, 0.0 ], [ 119.996327922142711, 12.003602506184507, 0.0 ], [ 119.996325632086965, 12.003624364484335, 0.0 ], [ 119.996331438501002, 12.003666781917538, 0.0 ], [ 119.996327226579865, 12.003684582294298, 0.0 ], [ 119.996323868509137, 12.003707108250579, 0.0 ], [ 119.996326831986792, 12.003737984047106, 0.0 ], [ 119.996327075741519, 12.003779673073788, 0.0 ], [ 119.996326831986792, 12.003827815575519, 0.0 ], [ 119.996272643633333, 12.003849326507888, 0.0 ], [ 119.99625273825545, 12.00387121873805, 0.0 ], [ 119.996244244599922, 12.00390050726698, 0.0 ], [ 119.996242398520764, 12.003951030841943, 0.0 ], [ 119.996241440580519, 12.003973136516528, 0.0 ], [ 119.996242922040381, 12.003998372535278, 0.0 ], [ 119.996237000458379, 12.004097310160754, 0.0 ], [ 119.996238176593025, 12.00414914564197, 0.0 ], [ 119.996237532151113, 12.004163356739527, 0.0 ], [ 119.996244007721828, 12.004187158272789, 0.0 ], [ 119.996248677737469, 12.00421078187548, 0.0 ], [ 119.996259138998255, 12.004232567888492, 0.0 ], [ 119.996278876411822, 12.004259581057626, 0.0 ], [ 119.996302989043201, 12.004265438328853, 0.0 ], [ 119.996326831986792, 12.004276973217578, 0.0 ], [ 119.996347499122962, 12.004303628257039, 0.0 ], [ 119.996392035393001, 12.00434418525931, 0.0 ], [ 119.996416663515205, 12.00436680474599, 0.0 ], [ 119.996416663515205, 12.004546467802815, 0.0 ], [ 119.996366426170226, 12.004565413786461, 0.0 ], [ 119.996359500622347, 12.004591529026788, 0.0 ], [ 119.996354326420558, 12.004631040564332, 0.0 ], [ 119.996350790126101, 12.00467369103375, 0.0 ], [ 119.996351575483388, 12.004744703562956, 0.0 ], [ 119.996366438826414, 12.0047840003395, 0.0 ], [ 119.996416663515205, 12.004815962388051, 0.0 ], [ 119.996458769944709, 12.004869814091116, 0.0 ], [ 119.996469329096143, 12.004882326858484, 0.0 ], [ 119.996479818434949, 12.004888527401222, 0.0 ], [ 119.996506495043619, 12.004905793916462, 0.0 ], [ 119.996559194684622, 12.004962643137741, 0.0 ], [ 119.996578614003283, 12.004979006535503, 0.0 ], [ 119.996596326572032, 12.004995625444874, 0.0 ], [ 119.9966053244151, 12.005044906440309, 0.0 ], [ 119.996621441251335, 12.005061343468997, 0.0 ], [ 119.996652462140204, 12.005069315843214, 0.0 ], [ 119.996686158100445, 12.005085456973285, 0.0 ], [ 119.996701943817186, 12.005136147339599, 0.0 ], [ 119.996712416790004, 12.005150799328023, 0.0 ], [ 119.996724651989098, 12.005155282001262, 0.0 ], [ 119.996743417278424, 12.00515692637617, 0.0 ], [ 119.996775989628858, 12.005175288501698, 0.0 ], [ 119.996865821157272, 12.005175288501698, 0.0 ], [ 119.996955652685685, 12.005175288501698, 0.0 ], [ 119.997052819688463, 12.005165679603156, 0.0 ], [ 119.997079295451712, 12.005167763124735, 0.0 ], [ 119.997101754974395, 12.005169100580529, 0.0 ], [ 119.997115406700161, 12.005171321584067, 0.0 ], [ 119.997135315742497, 12.005175288501698, 0.0 ], [ 119.997146071486782, 12.005207884235841, 0.0 ], [ 119.997145847884482, 12.005242016119853, 0.0 ], [ 119.997143173948515, 12.005272031388634, 0.0 ], [ 119.997141876455672, 12.005299664537118, 0.0 ], [ 119.997162132247553, 12.005319175396629, 0.0 ], [ 119.997184078587466, 12.005335832622107, 0.0 ], [ 119.99722514727091, 12.005354951558521, 0.0 ], [ 119.997250899457285, 12.005402478077427, 0.0 ], [ 119.997274641902649, 12.005430367862141, 0.0 ], [ 119.997314978799324, 12.005444783086935, 0.0 ], [ 119.997333527729211, 12.005523298330964, 0.0 ], [ 119.997404810327737, 12.005624446143758, 0.0 ], [ 119.997412153044593, 12.005701570604112, 0.0 ], [ 119.997417063858677, 12.005721818783798, 0.0 ], [ 119.997421944048057, 12.005739298995785, 0.0 ], [ 119.997439894630148, 12.005752025232297, 0.0 ], [ 119.997455043686372, 12.005765704272475, 0.0 ], [ 119.997466494806361, 12.005784036789747, 0.0 ], [ 119.99749464185615, 12.005804109200582, 0.0 ], [ 119.997546223910703, 12.005873612847687, 0.0 ], [ 119.997584473384563, 12.005893940728994, 0.0 ], [ 119.997592003932269, 12.0059870834317, 0.0 ], [ 119.997589053834403, 12.006059321437631, 0.0 ], [ 119.997595251093742, 12.006063465097457, 0.0 ], [ 119.997597538822021, 12.006063728929165, 0.0 ], [ 119.997600421262547, 12.006064793802937, 0.0 ], [ 119.997635619045738, 12.006069030183186, 0.0 ], [ 119.997680166319526, 12.006071090075645, 0.0 ], [ 119.997719270824561, 12.006068363812336, 0.0 ], [ 119.997728149138581, 12.006065961689375, 0.0 ], [ 119.997738917259653, 12.006064923447417, 0.0 ], [ 119.997748248881351, 12.006061132315113, 0.0 ], [ 119.997753973939766, 12.006049074974532, 0.0 ], [ 119.997755761128857, 12.006019988711381, 0.0 ], [ 119.997753687542655, 12.006002017031104, 0.0 ], [ 119.99776413644139, 12.005983772257405, 0.0 ], [ 119.9977796598628, 12.005977285231282, 0.0 ], [ 119.997791838953489, 12.005976693239285, 0.0 ], [ 119.997831992475099, 12.005962882534474, 0.0 ], [ 119.997835170733268, 12.005953620800724, 0.0 ], [ 119.997843025009402, 12.005943386155289, 0.0 ], [ 119.997846585103161, 12.005926276824754, 0.0 ], [ 119.997853967969803, 12.005893940728994, 0.0 ], [ 119.997943799498216, 12.005893940728994, 0.0 ], [ 119.997973407760384, 12.005888006124556, 0.0 ], [ 119.998016538914598, 12.005889158392009, 0.0 ], [ 119.998044638404863, 12.005887242189964, 0.0 ], [ 119.998061519030884, 12.005887983910691, 0.0 ], [ 119.998078307758121, 12.005880421733238, 0.0 ], [ 119.99809325262683, 12.005875647624761, 0.0 ], [ 119.998113316604588, 12.005867588935835, 0.0 ], [ 119.998123462555029, 12.005804109200582, 0.0 ], [ 119.998213294083442, 12.005804109200582, 0.0 ], [ 119.998266763296641, 12.005799965484144, 0.0 ], [ 119.998284056373137, 12.005795627563403, 0.0 ], [ 119.998292904034585, 12.005790457460568, 0.0 ], [ 119.998293713634339, 12.005778914219661, 0.0 ], [ 119.998293066309259, 12.005762772782386, 0.0 ], [ 119.998299499376813, 12.005751169225748, 0.0 ], [ 119.998303125611855, 12.005714277672169, 0.0 ], [ 119.998392957140268, 12.005714277672169, 0.0 ], [ 119.99848787161973, 12.005705548112923, 0.0 ], [ 119.998520654744425, 12.005703350938386, 0.0 ], [ 119.998545033306854, 12.005704012205527, 0.0 ], [ 119.998558175150791, 12.005705716767093, 0.0 ], [ 119.998585385870413, 12.005708193179876, 0.0 ], [ 119.998600381777578, 12.005708032322618, 0.0 ], [ 119.998617262385523, 12.005708774012035, 0.0 ], [ 119.998650065931315, 12.005708422131985, 0.0 ], [ 119.998682884795315, 12.005709454230198, 0.0 ], [ 119.998712886819874, 12.005710055159104, 0.0 ], [ 119.998732085004249, 12.005708465069766, 0.0 ], [ 119.998740794775088, 12.005690839117138, 0.0 ], [ 119.998752283253921, 12.005624446143758, 0.0 ], [ 119.998842114782335, 12.005624446143758, 0.0 ], [ 119.998866657, 12.005618322999965, 0.0 ], [ 119.998876809000194, 12.005589848000056, 0.0 ], [ 119.998880969000311, 12.005557018000161, 0.0 ], [ 119.998887923000211, 12.005540668000037, 0.0 ], [ 119.99890143000016, 12.005536574000075, 0.0 ], [ 119.998931946310748, 12.005534614615346, 0.0 ], [ 119.99895741584929, 12.0055297998607, 0.0 ], [ 119.999008928479441, 12.005526017559411, 0.0 ], [ 119.999032257420609, 12.005516539643363, 0.0 ], [ 119.999052290687999, 12.005505712936442, 0.0 ], [ 119.999067245721577, 12.005501861439141, 0.0 ], [ 119.999082618305934, 12.005493391641554, 0.0 ], [ 119.999092825838673, 12.005484054491879, 0.0 ], [ 119.999095065581358, 12.00543235568014, 0.0 ], [ 119.99911160936756, 12.005354951558521, 0.0 ], [ 119.999291272424387, 12.00526512003011, 0.0 ], [ 119.999387561953156, 12.005266811112985, 0.0 ], [ 119.999473747351843, 12.005262195342691, 0.0 ], [ 119.999470935481213, 12.00526512003011, 0.0 ], [ 119.999612408000189, 12.005266713000026, 0.0 ], [ 119.999694834257198, 12.005250595462272, 0.0 ], [ 119.999740430066453, 12.005175288501698, 0.0 ], [ 119.999920093123279, 12.005175288501698, 0.0 ], [ 119.999932398104121, 12.005203292205755, 0.0 ], [ 119.999949534082418, 12.005227100163575, 0.0 ], [ 119.999984565000318, 12.005238370000086, 0.0 ], [ 120.000068799000019, 12.00525211300004, 0.0 ], [ 120.000279419236918, 12.00526512003011, 0.0 ], [ 120.000306441871487, 12.005291554352107, 0.0 ], [ 120.000340529973954, 12.005322562441039, 0.0 ], [ 120.000369250765331, 12.005354951558521, 0.0 ], [ 120.000430640842268, 12.005418485404819, 0.0 ], [ 120.000464040652346, 12.005429661456276, 0.0 ], [ 120.000483356292818, 12.005438681765723, 0.0 ], [ 120.000548913822158, 12.005444783086935, 0.0 ], [ 120.000570327055044, 12.00546266286614, 0.0 ], [ 120.000586449216698, 12.005479560928688, 0.0 ], [ 120.000603936366176, 12.005492753287125, 0.0 ], [ 120.000619508156674, 12.005502275152031, 0.0 ], [ 120.00064821666173, 12.005513040151511, 0.0 ], [ 120.0006689075162, 12.005519277395527, 0.0 ], [ 120.000688223167174, 12.005528297687594, 0.0 ], [ 120.000728576878984, 12.005534614615346, 0.0 ], [ 120.000908239935811, 12.005534614615346, 0.0 ], [ 120.00099807146421, 12.005534614615346, 0.0 ], [ 120.001087902992623, 12.005534614615346, 0.0 ], [ 120.001177734521036, 12.005534614615346, 0.0 ], [ 120.001357397577863, 12.005534614615346, 0.0 ], [ 120.001537060634689, 12.005534614615346, 0.0 ], [ 120.001626892163102, 12.005534614615346, 0.0 ], [ 120.001633679777726, 12.005561747966469, 0.0 ], [ 120.001641005547057, 12.005588429403799, 0.0 ], [ 120.001645788183026, 12.005596340527882, 0.0 ], [ 120.001662303042224, 12.00560711734034, 0.0 ], [ 120.001670804662098, 12.005613024005548, 0.0 ], [ 120.001688199850932, 12.005617912411559, 0.0 ], [ 120.001716723691516, 12.005624446143758, 0.0 ], [ 120.00181950051234, 12.005624345981339, 0.0 ], [ 120.001896386748342, 12.005624446143758, 0.0 ], [ 120.001986218276741, 12.005624446143758, 0.0 ], [ 120.002000261920116, 12.00565331738154, 0.0 ], [ 120.002026872740956, 12.005686251030134, 0.0 ], [ 120.002064072692249, 12.005701999865316, 0.0 ], [ 120.002089403764984, 12.005704034733348, 0.0 ], [ 120.002136250485435, 12.005702147487332, 0.0 ], [ 120.00215732818576, 12.005700998362284, 0.0 ], [ 120.00217702558578, 12.005702170963476, 0.0 ], [ 120.002192963796489, 12.005702461174044, 0.0 ], [ 120.002220082437958, 12.005696633358964, 0.0 ], [ 120.002235439553061, 12.005686779431109, 0.0 ], [ 120.002245655452668, 12.005635917830421, 0.0 ], [ 120.002244513713762, 12.00561747486185, 0.0 ], [ 120.002245694627248, 12.005597161425479, 0.0 ], [ 120.00224595875008, 12.005578703358269, 0.0 ], [ 120.002248061567244, 12.005556995878637, 0.0 ], [ 120.002255712861981, 12.005534614615346, 0.0 ], [ 120.002361619302476, 12.005527170672929, 0.0 ], [ 120.00239814611102, 12.005524471465472, 0.0 ], [ 120.002422896062129, 12.005516362172406, 0.0 ], [ 120.002435375918807, 12.005444783086935, 0.0 ], [ 120.002512462888049, 12.005436273398731, 0.0 ], [ 120.002540574971121, 12.005435510077062, 0.0 ], [ 120.002576872562955, 12.005433274691942, 0.0 ], [ 120.002598976062728, 12.005418965172716, 0.0 ], [ 120.002615038975634, 12.005354951558521, 0.0 ], [ 120.002730380334839, 12.005350192182213, 0.0 ], [ 120.00279470203246, 12.005354951558521, 0.0 ], [ 120.002804016787223, 12.005397384800943, 0.0 ], [ 120.002818320819458, 12.005419377418997, 0.0 ], [ 120.002852194391224, 12.00543100945294, 0.0 ], [ 120.002884533560874, 12.005444783086935, 0.0 ], [ 120.002927805806536, 12.00544496141794, 0.0 ], [ 120.002974365089273, 12.005444783086935, 0.0 ], [ 120.003010529977615, 12.005445226228966, 0.0 ], [ 120.003053622537735, 12.005442917788226, 0.0 ], [ 120.003102348759441, 12.005441471581278, 0.0 ], [ 120.003133969431886, 12.005418985628328, 0.0 ], [ 120.003154028146099, 12.005354951558521, 0.0 ], [ 120.003215464598512, 12.005329525096574, 0.0 ], [ 120.003247259124294, 12.005322724201053, 0.0 ], [ 120.003284646395926, 12.005313094935961, 0.0 ], [ 120.003333691202926, 12.00526512003011, 0.0 ], [ 120.003539161602546, 12.005231991204013, 0.0 ], [ 120.003621584652876, 12.005219268881055, 0.0 ], [ 120.003660726820129, 12.005207011569603, 0.0 ], [ 120.003693017316579, 12.005175288501698, 0.0 ], [ 120.003806166335039, 12.005166387584312, 0.0 ], [ 120.003866239268405, 12.005162191071049, 0.0 ], [ 120.003922029131161, 12.005133183396037, 0.0 ], [ 120.003962511901804, 12.005085456973285, 0.0 ], [ 120.004232006487044, 12.004995625444874, 0.0 ], [ 120.004501501072284, 12.004905793916462, 0.0 ], [ 120.004824174457553, 12.00488430837116, 0.0 ], [ 120.004906915171816, 12.004864963840081, 0.0 ], [ 120.004950658714336, 12.004815962388051, 0.0 ], [ 120.005130321771162, 12.004726130859638, 0.0 ], [ 120.005399816356402, 12.004636299331226, 0.0 ], [ 120.005669310941641, 12.004636299331226, 0.0 ], [ 120.005700795861529, 12.004691255716901, 0.0 ], [ 120.005801253968613, 12.004705862537124, 0.0 ], [ 120.005903299923474, 12.004694615001453, 0.0 ], [ 120.005938805526867, 12.004636299331226, 0.0 ], [ 120.00602863705528, 12.004546467802815, 0.0 ], [ 120.006118468583693, 12.004456636274401, 0.0 ], [ 120.006208300112107, 12.00436680474599, 0.0 ], [ 120.00629813164052, 12.00436680474599, 0.0 ], [ 120.006477794697346, 12.004276973217578, 0.0 ], [ 120.006729437621075, 12.004260339590523, 0.0 ], [ 120.006787015962985, 12.004254183799246, 0.0 ], [ 120.006813476216195, 12.004231291648876, 0.0 ], [ 120.006837120810999, 12.004187141689167, 0.0 ], [ 120.006926952339398, 12.004097310160754, 0.0 ], [ 120.007016784000015, 12.00409731, 0.0 ], [ 120.007106615396225, 12.004007478632342, 0.0 ], [ 120.007286278453051, 12.004007478632342, 0.0 ], [ 120.007376109981465, 12.004007478632342, 0.0 ], [ 120.007645604566704, 12.004007478632342, 0.0 ], [ 120.007662448927618, 12.004040485272141, 0.0 ], [ 120.007681894924048, 12.004059214813608, 0.0 ], [ 120.007704137383897, 12.004077125154561, 0.0 ], [ 120.00772887066617, 12.004094890949247, 0.0 ], [ 120.007798439793831, 12.00409446711007, 0.0 ], [ 120.007855781268333, 12.004090092334138, 0.0 ], [ 120.007882975033397, 12.004084670525591, 0.0 ], [ 120.007915417199399, 12.004070874237, 0.0 ], [ 120.007960148187522, 12.004047324053712, 0.0 ], [ 120.008004930680343, 12.004007478632342, 0.0 ], [ 120.008051382164624, 12.003990977034581, 0.0 ], [ 120.008132747040349, 12.003974414732589, 0.0 ], [ 120.008169206815978, 12.003965717629198, 0.0 ], [ 120.008216821152459, 12.003948595688687, 0.0 ], [ 120.008247565346323, 12.00393165526209, 0.0 ], [ 120.008274425265583, 12.003917647103931, 0.0 ], [ 120.008319312025549, 12.003893050237027, 0.0 ], [ 120.008336069471738, 12.003882719599524, 0.0 ], [ 120.008346016636935, 12.003871078105744, 0.0 ], [ 120.008351666877104, 12.003852331481715, 0.0 ], [ 120.008364256793996, 12.003827815575519, 0.0 ], [ 120.008454088322409, 12.003827815575519, 0.0 ], [ 120.008466136908865, 12.003862634202703, 0.0 ], [ 120.008473890857189, 12.00388561968491, 0.0 ], [ 120.008489070930253, 12.003902065959116, 0.0 ], [ 120.008520957219218, 12.003903568352305, 0.0 ], [ 120.008541357325413, 12.003904732965074, 0.0 ], [ 120.008558459200131, 12.003904318244171, 0.0 ], [ 120.008574639212583, 12.003905297577422, 0.0 ], [ 120.008598777990514, 12.00390549919735, 0.0 ], [ 120.00861751233181, 12.003904374838218, 0.0 ], [ 120.008632981737819, 12.003904669747492, 0.0 ], [ 120.008653611027285, 12.003905370507299, 0.0 ], [ 120.008672126428024, 12.003905632635547, 0.0 ], [ 120.008685940314251, 12.003904561222551, 0.0 ], [ 120.008698073067677, 12.003899816873943, 0.0 ], [ 120.008707353151479, 12.003891412197467, 0.0 ], [ 120.008712002102229, 12.003866909118432, 0.0 ], [ 120.008715282878939, 12.003843746592207, 0.0 ], [ 120.008725629548607, 12.003833961003188, 0.0 ], [ 120.008770727930639, 12.003828152275611, 0.0 ], [ 120.008791279965308, 12.00382832161813, 0.0 ], [ 120.008813414436062, 12.003827815575519, 0.0 ], [ 120.008883540490615, 12.003825153845989, 0.0 ], [ 120.00890082290195, 12.003805069740727, 0.0 ], [ 120.008903245964461, 12.003737984047106, 0.0 ], [ 120.008993077492875, 12.003737984047106, 0.0 ], [ 120.009006771404103, 12.003725375636741, 0.0 ], [ 120.009019191629335, 12.003715503883679, 0.0 ], [ 120.00904220530073, 12.003709413350927, 0.0 ], [ 120.009052067272478, 12.003706710389553, 0.0 ], [ 120.009067024119076, 12.003687722458814, 0.0 ], [ 120.009072169455891, 12.003675981384477, 0.0 ], [ 120.009079873042722, 12.00365707151736, 0.0 ], [ 120.009082909021288, 12.003648152518695, 0.0 ], [ 120.009262572078114, 12.003648152518695, 0.0 ], [ 120.009320358217394, 12.003637279228718, 0.0 ], [ 120.009365167680627, 12.00363420009997, 0.0 ], [ 120.00941523781556, 12.00362976592915, 0.0 ], [ 120.00944817831224, 12.003626814542205, 0.0 ], [ 120.009487640575614, 12.003617300899357, 0.0 ], [ 120.009507306816914, 12.003606701928085, 0.0 ], [ 120.009519002738372, 12.003590995108116, 0.0 ], [ 120.009526756759271, 12.003576629129428, 0.0 ], [ 120.009532066663354, 12.003558320990283, 0.0 ], [ 120.009625335457912, 12.003517486187341, 0.0 ], [ 120.009711729720181, 12.00346848946187, 0.0 ], [ 120.009801561248594, 12.00346848946187, 0.0 ], [ 120.010071055833819, 12.00346848946187, 0.0 ], [ 120.010160887362233, 12.00346848946187, 0.0 ], [ 120.010250718890646, 12.00346848946187, 0.0 ], [ 120.010276213796061, 12.003516791990753, 0.0 ], [ 120.010307743559679, 12.003540914999832, 0.0 ], [ 120.010340550419059, 12.003558320990283, 0.0 ], [ 120.010380377595396, 12.003601197982098, 0.0 ], [ 120.010430381947472, 12.003648152518695, 0.0 ], [ 120.01044756586694, 12.00371269102409, 0.0 ], [ 120.010475332120706, 12.003735464581956, 0.0 ], [ 120.010496664293342, 12.003734580688924, 0.0 ], [ 120.010520213475885, 12.003737984047106, 0.0 ], [ 120.010610045004299, 12.003737984047106, 0.0 ], [ 120.01062993926719, 12.003753662503293, 0.0 ], [ 120.010648452398186, 12.003760565158426, 0.0 ], [ 120.010675781899636, 12.003767372873938, 0.0 ], [ 120.010696769634436, 12.003780561774876, 0.0 ], [ 120.010724979532171, 12.003794462013301, 0.0 ], [ 120.010791282790052, 12.003829026270877, 0.0 ], [ 120.010797671693268, 12.003869857349745, 0.0 ], [ 120.010804170291848, 12.003890886511108, 0.0 ], [ 120.010813929758669, 12.003908634533522, 0.0 ], [ 120.01084038456608, 12.003915490888406, 0.0 ], [ 120.010865535027818, 12.003923659696088, 0.0 ], [ 120.010877490545923, 12.003931321397008, 0.0 ], [ 120.0108866585839, 12.003978814114694, 0.0 ], [ 120.010906195776485, 12.003994654163412, 0.0 ], [ 120.010920727706647, 12.004018573340398, 0.0 ], [ 120.010960687232696, 12.004038206057633, 0.0 ], [ 120.010988342090997, 12.004050949214266, 0.0 ], [ 120.011004900659358, 12.004073843404786, 0.0 ], [ 120.011025634508854, 12.004088131808675, 0.0 ], [ 120.011038213355903, 12.004092540765175, 0.0 ], [ 120.011052089335365, 12.004094988137942, 0.0 ], [ 120.011075153447294, 12.004093441327083, 0.0 ], [ 120.011109470418461, 12.004095668544222, 0.0 ], [ 120.011123926430216, 12.004090968419257, 0.0 ], [ 120.011135071079238, 12.004085005549621, 0.0 ], [ 120.011140194678006, 12.004071317077431, 0.0 ], [ 120.011151858414067, 12.004008218642801, 0.0 ], [ 120.011175589116775, 12.004007313850273, 0.0 ], [ 120.011225724137574, 12.004008721483908, 0.0 ], [ 120.011259915926601, 12.004014520656009, 0.0 ], [ 120.01132869723159, 12.004007478632342, 0.0 ], [ 120.011418528760004, 12.004007478632342, 0.0 ], [ 120.011508360288417, 12.004007478632342, 0.0 ], [ 120.01159819181683, 12.004007478632342, 0.0 ], [ 120.011631960716798, 12.004045889524095, 0.0 ], [ 120.011688023345243, 12.004097310160754, 0.0 ], [ 120.011777854873657, 12.004187141689167, 0.0 ], [ 120.011802237880062, 12.004220816184214, 0.0 ], [ 120.011867686402056, 12.004276973217578, 0.0 ], [ 120.011904348149429, 12.004320722396624, 0.0 ], [ 120.011913292786545, 12.004404271831268, 0.0 ], [ 120.011902896435274, 12.004478560297574, 0.0 ], [ 120.011912847617182, 12.004508439318478, 0.0 ], [ 120.011962389203006, 12.004530395250248, 0.0 ], [ 120.012047349458882, 12.004546467802815, 0.0 ], [ 120.012079773449443, 12.004598177795314, 0.0 ], [ 120.012108018567289, 12.004615233922461, 0.0 ], [ 120.012137180987295, 12.004636299331226, 0.0 ], [ 120.012151910166679, 12.00466072674288, 0.0 ], [ 120.012155335429171, 12.004680417615695, 0.0 ], [ 120.012163569631412, 12.004700056674306, 0.0 ], [ 120.012202137637104, 12.004708321341536, 0.0 ], [ 120.012227012515709, 12.004726130859638, 0.0 ], [ 120.012249132847927, 12.00475358342103, 0.0 ], [ 120.012260774788018, 12.004791335310774, 0.0 ], [ 120.012264261470122, 12.004816549295471, 0.0 ], [ 120.012283856910287, 12.004848691706545, 0.0 ], [ 120.01230489742693, 12.004866614545811, 0.0 ], [ 120.012332376186649, 12.004886835341965, 0.0 ], [ 120.012382112445138, 12.004890244969619, 0.0 ], [ 120.012422208887742, 12.004891785685915, 0.0 ], [ 120.012456245900594, 12.004889051581207, 0.0 ], [ 120.012488745731105, 12.004892252368663, 0.0 ], [ 120.012496507100948, 12.004905793916462, 0.0 ], [ 120.012509500845411, 12.004992640350913, 0.0 ], [ 120.012512044138361, 12.005041143263155, 0.0 ], [ 120.012496507100948, 12.005085456973285, 0.0 ], [ 120.012440532887908, 12.005097940739414, 0.0 ], [ 120.012344397854562, 12.005102922215356, 0.0 ], [ 120.012329494128593, 12.00513227991706, 0.0 ], [ 120.01235853203795, 12.00514853834828, 0.0 ], [ 120.012377864326339, 12.005157010251004, 0.0 ], [ 120.012394774596217, 12.005163930029298, 0.0 ], [ 120.01241963836388, 12.005165240324297, 0.0 ], [ 120.012676170157775, 12.005175288501698, 0.0 ], [ 120.012766001686188, 12.005175288501698, 0.0 ], [ 120.012855833214587, 12.005175288501698, 0.0 ], [ 120.012945664743, 12.005175288501698, 0.0 ], [ 120.013035496271414, 12.005175288501698, 0.0 ], [ 120.013125327799827, 12.005175288501698, 0.0 ], [ 120.013141168681884, 12.005174430172687, 0.0 ], [ 120.013180573348507, 12.005185842105496, 0.0 ], [ 120.013208325689007, 12.005194617742953, 0.0 ], [ 120.013250601393466, 12.005211917046404, 0.0 ], [ 120.013278767647051, 12.005221871879559, 0.0 ], [ 120.013304990856653, 12.00526512003011, 0.0 ], [ 120.013574485441893, 12.00526512003011, 0.0 ], [ 120.013664855022739, 12.005269002146196, 0.0 ], [ 120.013718563654095, 12.005269212251058, 0.0 ], [ 120.01375414849872, 12.00526512003011, 0.0 ], [ 120.013770128120512, 12.005256819700858, 0.0 ], [ 120.013783159608849, 12.00523931879083, 0.0 ], [ 120.013802603016742, 12.005221748754719, 0.0 ], [ 120.013825609240357, 12.005200194757469, 0.0 ], [ 120.01385324007336, 12.005162019591836, 0.0 ], [ 120.013889735563339, 12.00512808895952, 0.0 ], [ 120.013933811555532, 12.005085456973285, 0.0 ], [ 120.013984251265768, 12.005085641693165, 0.0 ], [ 120.014023643083945, 12.005085456973285, 0.0 ], [ 120.014052712789734, 12.005078985251179, 0.0 ], [ 120.014070358726343, 12.005079978663582, 0.0 ], [ 120.014104827164317, 12.005080001588537, 0.0 ], [ 120.014144527228396, 12.005081940876597, 0.0 ], [ 120.014182155804065, 12.005080375400713, 0.0 ], [ 120.014221743671968, 12.005069666230813, 0.0 ], [ 120.014248391659621, 12.005051229381653, 0.0 ], [ 120.014279677396104, 12.00501735488567, 0.0 ], [ 120.014293137669185, 12.004995625444874, 0.0 ], [ 120.014350328265166, 12.004991341583292, 0.0 ], [ 120.014411215094583, 12.004988317728705, 0.0 ], [ 120.014437673010235, 12.004988821545869, 0.0 ], [ 120.014463311878202, 12.004987755973154, 0.0 ], [ 120.014496983193141, 12.004988182002387, 0.0 ], [ 120.01452620242172, 12.004984710487808, 0.0 ], [ 120.01456907329775, 12.004983459088161, 0.0 ], [ 120.014599494756297, 12.004979974602101, 0.0 ], [ 120.014628330794807, 12.004978085428357, 0.0 ], [ 120.014657114154232, 12.00497146216312, 0.0 ], [ 120.014690557188331, 12.004951373785984, 0.0 ], [ 120.014720785482609, 12.004930530963962, 0.0 ], [ 120.014742295311251, 12.004905793916462, 0.0 ], [ 120.014762886841027, 12.004896145241108, 0.0 ], [ 120.014779930074013, 12.004878995594753, 0.0 ], [ 120.014811691088809, 12.004851823362486, 0.0 ], [ 120.01483212683965, 12.004815962388051, 0.0 ], [ 120.014989487398452, 12.004810845017193, 0.0 ], [ 120.015006534385265, 12.004812042110293, 0.0 ], [ 120.015027386244924, 12.004813000889913, 0.0 ], [ 120.015052833489378, 12.004812726443047, 0.0 ], [ 120.01510372797641, 12.004812177542398, 0.0 ], [ 120.015135098266356, 12.004812924232041, 0.0 ], [ 120.0151626680737, 12.004814303739604, 0.0 ], [ 120.015203374129285, 12.004843904807304, 0.0 ], [ 120.015203374129285, 12.004843904807304, 0.0 ], [ 120.015203374129285, 12.004843904807304, 0.0 ], [ 120.015180289000114, 12.004797903000167, 0.0 ] ] ] ] } }
]
}
