{
"type": "FeatureCollection",
"name": "terrestrial_aoi",
"crs": { "type": "name", "properties": { "name": "urn:ogc:def:crs:OGC:1.3:CRS84" } },
"features": [
{ "type": "Feature", "properties": { "Name": "Terrestrial AOI", "Area": 679.37, "Descriptio": "Area of interest for Earth Observation Imagery of Terrestrial" }, "geometry": { "type": "MultiPolygon", "coordinates": [ [ [ [ 120.009801561248594, 12.00346848946187, 0.0 ], [ 120.009711729720181, 12.00346848946187, 0.0 ], [ 120.009625335457912, 12.003517486187341, 0.0 ], [ 120.009532066663354, 12.003558320990283, 0.0 ], [ 120.009526756759271, 12.003576629129428, 0.0 ], [ 120.009519002738372, 12.003590995108116, 0.0 ], [ 120.009507306816914, 12.003606701928085, 0.0 ], [ 120.009487640575614, 12.003617300899357, 0.0 ], [ 120.00944817831224, 12.003626814542205, 0.0 ], [ 120.00941523781556, 12.00362976592915, 0.0 ], [ 120.009365167680627, 12.00363420009997, 0.0 ], [ 120.009320358217394, 12.003637279228718, 0.0 ], [ 120.009262572078114, 12.003648152518695, 0.0 ], [ 120.009262572078114, 12.003648152518695, 0.0 ], [ 120.009262572078114, 12.003648152518695, 0.0 ], [ 120.009262572078114, 12.003648152518695, 0.0 ], [ 120.009082909021288, 12.003648152518695, 0.0 ], [ 120.009082909021288, 12.003648152518695, 0.0 ], [ 120.009079873042722, 12.00365707151736, 0.0 ], [ 120.009072169455891, 12.003675981384477, 0.0 ], [ 120.009067024119076, 12.003687722458814, 0.0 ], [ 120.009052067272478, 12.003706710389553, 0.0 ], [ 120.00904220530073, 12.003709413350927, 0.0 ], [ 120.009019191629335, 12.003715503883679, 0.0 ], [ 120.009006771404103, 12.003725375636741, 0.0 ], [ 120.008993077492875, 12.003737984047106, 0.0 ], [ 120.008903245964461, 12.003737984047106, 0.0 ], [ 120.008903245964461, 12.003737984047106, 0.0 ], [ 120.008903245964461, 12.003737984047106, 0.0 ], [ 120.00890082290195, 12.003805069740727, 0.0 ], [ 120.008883540490615, 12.003825153845989, 0.0 ], [ 120.008813414436062, 12.003827815575519, 0.0 ], [ 120.008791279965308, 12.00382832161813, 0.0 ], [ 120.008770727930639, 12.003828152275611, 0.0 ], [ 120.008725629548607, 12.003833961003188, 0.0 ], [ 120.008715282878939, 12.003843746592207, 0.0 ], [ 120.008712002102229, 12.003866909118432, 0.0 ], [ 120.008707353151479, 12.003891412197467, 0.0 ], [ 120.008698073067677, 12.003899816873943, 0.0 ], [ 120.008685940314251, 12.003904561222551, 0.0 ], [ 120.008672126428024, 12.003905632635547, 0.0 ], [ 120.008653611027285, 12.003905370507299, 0.0 ], [ 120.008632981737819, 12.003904669747492, 0.0 ], [ 120.00861751233181, 12.003904374838218, 0.0 ], [ 120.008598777990514, 12.00390549919735, 0.0 ], [ 120.008574639212583, 12.003905297577422, 0.0 ], [ 120.008558459200131, 12.003904318244171, 0.0 ], [ 120.008541357325413, 12.003904732965074, 0.0 ], [ 120.008520957219218, 12.003903568352305, 0.0 ], [ 120.008489070930253, 12.003902065959116, 0.0 ], [ 120.008473890857189, 12.00388561968491, 0.0 ], [ 120.008466136908865, 12.003862634202703, 0.0 ], [ 120.008454088322409, 12.003827815575519, 0.0 ], [ 120.008364256793996, 12.003827815575519, 0.0 ], [ 120.008351666877104, 12.003852331481715, 0.0 ], [ 120.008346016636935, 12.003871078105744, 0.0 ], [ 120.008336069471738, 12.003882719599524, 0.0 ], [ 120.008319312025549, 12.003893050237027, 0.0 ], [ 120.008274425265583, 12.003917647103931, 0.0 ], [ 120.008274425265583, 12.003917647103931, 0.0 ], [ 120.008274425265583, 12.003917647103931, 0.0 ], [ 120.008274425265583, 12.003917647103931, 0.0 ], [ 120.008247565346323, 12.00393165526209, 0.0 ], [ 120.008216821152459, 12.003948595688687, 0.0 ], [ 120.008169206815978, 12.003965717629198, 0.0 ], [ 120.008132747040349, 12.003974414732589, 0.0 ], [ 120.008051382164624, 12.003990977034581, 0.0 ], [ 120.008004930680343, 12.004007478632342, 0.0 ], [ 120.007960148187522, 12.004047324053712, 0.0 ], [ 120.007915417199399, 12.004070874237, 0.0 ], [ 120.007882975033397, 12.004084670525591, 0.0 ], [ 120.007855781268333, 12.004090092334138, 0.0 ], [ 120.007798439793831, 12.00409446711007, 0.0 ], [ 120.007798439793831, 12.00409446711007, 0.0 ], [ 120.007798439793831, 12.00409446711007, 0.0 ], [ 120.007798439793831, 12.00409446711007, 0.0 ], [ 120.007798439793831, 12.00409446711007, 0.0 ], [ 120.007798439793831, 12.00409446711007, 0.0 ], [ 120.007798439793831, 12.00409446711007, 0.0 ], [ 120.007798439793831, 12.00409446711007, 0.0 ], [ 120.007798439793831, 12.00409446711007, 0.0 ], [ 120.007798439793831, 12.00409446711007, 0.0 ], [ 120.00772887066617, 12.004094890949247, 0.0 ], [ 120.007704137383897, 12.004077125154561, 0.0 ], [ 120.007681894924048, 12.004059214813608, 0.0 ], [ 120.007662448927618, 12.004040485272141, 0.0 ], [ 120.007645604566704, 12.004007478632342, 0.0 ], [ 120.007376109981465, 12.004007478632342, 0.0 ], [ 120.007286278453051, 12.004007478632342, 0.0 ], [ 120.007106615396225, 12.004007478632342, 0.0 ], [ 120.007016784000015, 12.00409731, 0.0 ], [ 120.006926952339398, 12.004097310160754, 0.0 ], [ 120.006926952339398, 12.004097310160754, 0.0 ], [ 120.006926952339398, 12.004097310160754, 0.0 ], [ 120.006926952339398, 12.004097310160754, 0.0 ], [ 120.006926952339398, 12.004097310160754, 0.0 ], [ 120.006926952339398, 12.004097310160754, 0.0 ], [ 120.006926952339398, 12.004097310160754, 0.0 ], [ 120.006926952339398, 12.004097310160754, 0.0 ], [ 120.006926952339398, 12.004097310160754, 0.0 ], [ 120.006926952339398, 12.004097310160754, 0.0 ], [ 120.006926952339398, 12.004097310160754, 0.0 ], [ 120.006926952339398, 12.004097310160754, 0.0 ], [ 120.006837120810999, 12.004187141689167, 0.0 ], [ 120.006813476216195, 12.004231291648876, 0.0 ], [ 120.006787015962985, 12.004254183799246, 0.0 ], [ 120.006729437621075, 12.004260339590523, 0.0 ], [ 120.006477794697346, 12.004276973217578, 0.0 ], [ 120.00629813164052, 12.00436680474599, 0.0 ], [ 120.006208300112107, 12.00436680474599, 0.0 ], [ 120.006118468583693, 12.004456636274401, 0.0 ], [ 120.00602863705528, 12.004546467802815, 0.0 ], [ 120.00602863705528, 12.004546467802815, 0.0 ], [ 120.00602863705528, 12.004546467802815, 0.0 ], [ 120.00602863705528, 12.004546467802815, 0.0 ], [ 120.005938805526867, 12.004636299331226, 0.0 ], [ 120.005903299923474, 12.004694615001453, 0.0 ], [ 120.005801253968613, 12.004705862537124, 0.0 ], [ 120.005700795861529, 12.004691255716901, 0.0 ], [ 120.005669310941641, 12.004636299331226, 0.0 ], [ 120.005399816356402, 12.004636299331226, 0.0 ], [ 120.005399816356402, 12.004636299331226, 0.0 ], [ 120.005399816356402, 12.004636299331226, 0.0 ], [ 120.005130321771162, 12.004726130859638, 0.0 ], [ 120.005130321771162, 12.004726130859638, 0.0 ], [ 120.005130321771162, 12.004726130859638, 0.0 ], [ 120.005130321771162, 12.004726130859638, 0.0 ], [ 120.005130321771162, 12.004726130859638, 0.0 ], [ 120.005130321771162, 12.004726130859638, 0.0 ], [ 120.005130321771162, 12.004726130859638, 0.0 ], [ 120.004950658714336, 12.004815962388051, 0.0 ], [ 120.004950658714336, 12.004815962388051, 0.0 ], [ 120.004950658714336, 12.004815962388051, 0.0 ], [ 120.004950658714336, 12.004815962388051, 0.0 ], [ 120.004950658714336, 12.004815962388051, 0.0 ], [ 120.004950658714336, 12.004815962388051, 0.0 ], [ 120.004950658714336, 12.004815962388051, 0.0 ], [ 120.004906915171816, 12.004864963840081, 0.0 ], [ 120.004824174457553, 12.00488430837116, 0.0 ], [ 120.004501501072284, 12.004905793916462, 0.0 ], [ 120.004232006487044, 12.004995625444874, 0.0 ], [ 120.003962511901804, 12.005085456973285, 0.0 ], [ 120.003922029131161, 12.005133183396037, 0.0 ], [ 120.003866239268405, 12.005162191071049, 0.0 ], [ 120.003806166335039, 12.005166387584312, 0.0 ], [ 120.003693017316579, 12.005175288501698, 0.0 ], [ 120.003660726820129, 12.005207011569603, 0.0 ], [ 120.003621584652876, 12.005219268881055, 0.0 ], [ 120.003539161602546, 12.005231991204013, 0.0 ], [ 120.003333691202926, 12.00526512003011, 0.0 ], [ 120.003284646395926, 12.005313094935961, 0.0 ], [ 120.003247259124294, 12.005322724201053, 0.0 ], [ 120.003215464598512, 12.005329525096574, 0.0 ], [ 120.003154028146099, 12.005354951558521, 0.0 ], [ 120.003133969431886, 12.005418985628328, 0.0 ], [ 120.003102348759441, 12.005441471581278, 0.0 ], [ 120.003053622537735, 12.005442917788226, 0.0 ], [ 120.003010529977615, 12.005445226228966, 0.0 ], [ 120.002974365089273, 12.005444783086935, 0.0 ], [ 120.002927805806536, 12.00544496141794, 0.0 ], [ 120.002884533560874, 12.005444783086935, 0.0 ], [ 120.002852194391224, 12.00543100945294, 0.0 ], [ 120.002818320819458, 12.005419377418997, 0.0 ], [ 120.002804016787223, 12.005397384800943, 0.0 ], [ 120.00279470203246, 12.005354951558521, 0.0 ], [ 120.002730380334839, 12.005350192182213, 0.0 ], [ 120.002615038975634, 12.005354951558521, 0.0 ], [ 120.002598976062728, 12.005418965172716, 0.0 ], [ 120.002576872562955, 12.005433274691942, 0.0 ], [ 120.002540574971121, 12.005435510077062, 0.0 ], [ 120.002512462888049, 12.005436273398731, 0.0 ], [ 120.002435375918807, 12.005444783086935, 0.0 ], [ 120.002422896062129, 12.005516362172406, 0.0 ], [ 120.00239814611102, 12.005524471465472, 0.0 ], [ 120.002361619302476, 12.005527170672929, 0.0 ], [ 120.002255712861981, 12.005534614615346, 0.0 ], [ 120.002248061567244, 12.005556995878637, 0.0 ], [ 120.00224595875008, 12.005578703358269, 0.0 ], [ 120.002245694627248, 12.005597161425479, 0.0 ], [ 120.002244513713762, 12.00561747486185, 0.0 ], [ 120.002245655452668, 12.005635917830421, 0.0 ], [ 120.002235439553061, 12.005686779431109, 0.0 ], [ 120.002220082437958, 12.005696633358964, 0.0 ], [ 120.002192963796489, 12.005702461174044, 0.0 ], [ 120.00217702558578, 12.005702170963476, 0.0 ], [ 120.00215732818576, 12.005700998362284, 0.0 ], [ 120.002136250485435, 12.005702147487332, 0.0 ], [ 120.002089403764984, 12.005704034733348, 0.0 ], [ 120.002064072692249, 12.005701999865316, 0.0 ], [ 120.002026872740956, 12.005686251030134, 0.0 ], [ 120.002000261920116, 12.00565331738154, 0.0 ], [ 120.001986218276741, 12.005624446143758, 0.0 ], [ 120.001896386748342, 12.005624446143758, 0.0 ], [ 120.00181950051234, 12.005624345981339, 0.0 ], [ 120.001716723691516, 12.005624446143758, 0.0 ], [ 120.001688199850932, 12.005617912411559, 0.0 ], [ 120.001670804662098, 12.005613024005548, 0.0 ], [ 120.001662303042224, 12.00560711734034, 0.0 ], [ 120.001645788183026, 12.005596340527882, 0.0 ], [ 120.001641005547057, 12.005588429403799, 0.0 ], [ 120.001633679777726, 12.005561747966469, 0.0 ], [ 120.001626892163102, 12.005534614615346, 0.0 ], [ 120.001537060634689, 12.005534614615346, 0.0 ], [ 120.001357397577863, 12.005534614615346, 0.0 ], [ 120.001177734521036, 12.005534614615346, 0.0 ], [ 120.001177734521036, 12.005534614615346, 0.0 ], [ 120.001177734521036, 12.005534614615346, 0.0 ], [ 120.001177734521036, 12.005534614615346, 0.0 ], [ 120.001177734521036, 12.005534614615346, 0.0 ], [ 120.001177734521036, 12.005534614615346, 0.0 ], [ 120.001177734521036, 12.005534614615346, 0.0 ], [ 120.001177734521036, 12.005534614615346, 0.0 ], [ 120.001087902992623, 12.005534614615346, 0.0 ], [ 120.001087902992623, 12.005534614615346, 0.0 ], [ 120.001087902992623, 12.005534614615346, 0.0 ], [ 120.001087902992623, 12.005534614615346, 0.0 ], [ 120.001087902992623, 12.005534614615346, 0.0 ], [ 120.001087902992623, 12.005534614615346, 0.0 ], [ 120.001087902992623, 12.005534614615346, 0.0 ], [ 120.001087902992623, 12.005534614615346, 0.0 ], [ 120.001087902992623, 12.005534614615346, 0.0 ], [ 120.00099807146421, 12.005534614615346, 0.0 ], [ 120.00099807146421, 12.005534614615346, 0.0 ], [ 120.00099807146421, 12.005534614615346, 0.0 ], [ 120.000908239935811, 12.005534614615346, 0.0 ], [ 120.000908239935811, 12.005534614615346, 0.0 ], [ 120.000908239935811, 12.005534614615346, 0.0 ], [ 120.000728576878984, 12.005534614615346, 0.0 ], [ 120.000688223167174, 12.005528297687594, 0.0 ], [ 120.0006689075162, 12.005519277395527, 0.0 ], [ 120.00064821666173, 12.005513040151511, 0.0 ], [ 120.000619508156674, 12.005502275152031, 0.0 ], [ 120.000603936366176, 12.005492753287125, 0.0 ], [ 120.000586449216698, 12.005479560928688, 0.0 ], [ 120.000570327055044, 12.00546266286614, 0.0 ], [ 120.000548913822158, 12.005444783086935, 0.0 ], [ 120.000483356292818, 12.005438681765723, 0.0 ], [ 120.000464040652346, 12.005429661456276, 0.0 ], [ 120.000430640842268, 12.005418485404819, 0.0 ], [ 120.000369250765331, 12.005354951558521, 0.0 ], [ 120.000340529973954, 12.005322562441039, 0.0 ], [ 120.000306441871487, 12.005291554352107, 0.0 ], [ 120.000279419236918, 12.00526512003011, 0.0 ], [ 120.000068799000019, 12.00525211300004, 0.0 ], [ 119.999984565000318, 12.005238370000086, 0.0 ], [ 119.999949534082418, 12.005227100163575, 0.0 ], [ 119.999932398104121, 12.005203292205755, 0.0 ], [ 119.999920093123279, 12.005175288501698, 0.0 ], [ 119.999740430066453, 12.005175288501698, 0.0 ], [ 119.999694834257198, 12.005250595462272, 0.0 ], [ 119.999612408000189, 12.005266713000026, 0.0 ], [ 119.999470935481213, 12.00526512003011, 0.0 ], [ 119.999473747351843, 12.005262195342691, 0.0 ], [ 119.999387561953156, 12.005266811112985, 0.0 ], [ 119.999291272424387, 12.00526512003011, 0.0 ], [ 119.99911160936756, 12.005354951558521, 0.0 ], [ 119.99911160936756, 12.005354951558521, 0.0 ], [ 119.99911160936756, 12.005354951558521, 0.0 ], [ 119.99911160936756, 12.005354951558521, 0.0 ], [ 119.99911160936756, 12.005354951558521, 0.0 ], [ 119.99911160936756, 12.005354951558521, 0.0 ], [ 119.999095065581358, 12.00543235568014, 0.0 ], [ 119.999095065581358, 12.00543235568014, 0.0 ], [ 119.999095065581358, 12.00543235568014, 0.0 ], [ 119.999095065581358, 12.00543235568014, 0.0 ], [ 119.999095065581358, 12.00543235568014, 0.0 ], [ 119.999092825838673, 12.005484054491879, 0.0 ], [ 119.999082618305934, 12.005493391641554, 0.0 ], [ 119.999067245721577, 12.005501861439141, 0.0 ], [ 119.999052290687999, 12.005505712936442, 0.0 ], [ 119.999032257420609, 12.005516539643363, 0.0 ], [ 119.999008928479441, 12.005526017559411, 0.0 ], [ 119.99895741584929, 12.0055297998607, 0.0 ], [ 119.998931946310748, 12.005534614615346, 0.0 ], [ 119.998931946310748, 12.005534614615346, 0.0 ], [ 119.99890143000016, 12.005536574000075, 0.0 ], [ 119.998887923000211, 12.005540668000037, 0.0 ], [ 119.998880969000311, 12.005557018000161, 0.0 ], [ 119.998876809000194, 12.005589848000056, 0.0 ], [ 119.998866657, 12.005618322999965, 0.0 ], [ 119.998842114782335, 12.005624446143758, 0.0 ], [ 119.998842114782335, 12.005624446143758, 0.0 ], [ 119.998842114782335, 12.005624446143758, 0.0 ], [ 119.998752283253921, 12.005624446143758, 0.0 ], [ 119.998752283253921, 12.005624446143758, 0.0 ], [ 119.998740794775088, 12.005690839117138, 0.0 ], [ 119.998740794775088, 12.005690839117138, 0.0 ], [ 119.998732085004249, 12.005708465069766, 0.0 ], [ 119.998712886819874, 12.005710055159104, 0.0 ], [ 119.998682884795315, 12.005709454230198, 0.0 ], [ 119.998650065931315, 12.005708422131985, 0.0 ], [ 119.998617262385523, 12.005708774012035, 0.0 ], [ 119.998600381777578, 12.005708032322618, 0.0 ], [ 119.998585385870413, 12.005708193179876, 0.0 ], [ 119.998558175150791, 12.005705716767093, 0.0 ], [ 119.998545033306854, 12.005704012205527, 0.0 ], [ 119.998520654744425, 12.005703350938386, 0.0 ], [ 119.99848787161973, 12.005705548112923, 0.0 ], [ 119.998392957140268, 12.005714277672169, 0.0 ], [ 119.998392957140268, 12.005714277672169, 0.0 ], [ 119.998392957140268, 12.005714277672169, 0.0 ], [ 119.998392957140268, 12.005714277672169, 0.0 ], [ 119.998392957140268, 12.005714277672169, 0.0 ], [ 119.998303125611855, 12.005714277672169, 0.0 ], [ 119.998303125611855, 12.005714277672169, 0.0 ], [ 119.998303125611855, 12.005714277672169, 0.0 ], [ 119.998303125611855, 12.005714277672169, 0.0 ], [ 119.998303125611855, 12.005714277672169, 0.0 ], [ 119.998299499376813, 12.005751169225748, 0.0 ], [ 119.998293066309259, 12.005762772782386, 0.0 ], [ 119.998293713634339, 12.005778914219661, 0.0 ], [ 119.998292904034585, 12.005790457460568, 0.0 ], [ 119.998284056373137, 12.005795627563403, 0.0 ], [ 119.998266763296641, 12.005799965484144, 0.0 ], [ 119.998213294083442, 12.005804109200582, 0.0 ], [ 119.998213294083442, 12.005804109200582, 0.0 ], [ 119.998213294083442, 12.005804109200582, 0.0 ], [ 119.998213294083442, 12.005804109200582, 0.0 ], [ 119.998123462555029, 12.005804109200582, 0.0 ], [ 119.998123462555029, 12.005804109200582, 0.0 ], [ 119.998123462555029, 12.005804109200582, 0.0 ], [ 119.998123462555029, 12.005804109200582, 0.0 ], [ 119.998123462555029, 12.005804109200582, 0.0 ], [ 119.998113316604588, 12.005867588935835, 0.0 ], [ 119.99809325262683, 12.005875647624761, 0.0 ], [ 119.998078307758121, 12.005880421733238, 0.0 ], [ 119.998078307758121, 12.005880421733238, 0.0 ], [ 119.998078307758121, 12.005880421733238, 0.0 ], [ 119.998078307758121, 12.005880421733238, 0.0 ], [ 119.998061519030884, 12.005887983910691, 0.0 ], [ 119.998061519030884, 12.005887983910691, 0.0 ], [ 119.998044638404863, 12.005887242189964, 0.0 ], [ 119.998044638404863, 12.005887242189964, 0.0 ], [ 119.998016538914598, 12.005889158392009, 0.0 ], [ 119.997973407760384, 12.005888006124556, 0.0 ], [ 119.997973407760384, 12.005888006124556, 0.0 ], [ 119.997973407760384, 12.005888006124556, 0.0 ], [ 119.997973407760384, 12.005888006124556, 0.0 ], [ 119.997973407760384, 12.005888006124556, 0.0 ], [ 119.997943799498216, 12.005893940728994, 0.0 ], [ 119.997943799498216, 12.005893940728994, 0.0 ], [ 119.997943799498216, 12.005893940728994, 0.0 ], [ 119.997943799498216, 12.005893940728994, 0.0 ], [ 119.997943799498216, 12.005893940728994, 0.0 ], [ 119.997943799498216, 12.005893940728994, 0.0 ], [ 119.997943799498216, 12.005893940728994, 0.0 ], [ 119.997943799498216, 12.005893940728994, 0.0 ], [ 119.997943799498216, 12.005893940728994, 0.0 ], [ 119.997943799498216, 12.005893940728994, 0.0 ], [ 119.997853967969803, 12.005893940728994, 0.0 ], [ 119.997853967969803, 12.005893940728994, 0.0 ], [ 119.997853967969803, 12.005893940728994, 0.0 ], [ 119.997853967969803, 12.005893940728994, 0.0 ], [ 119.997846585103161, 12.005926276824754, 0.0 ], [ 119.997843025009402, 12.005943386155289, 0.0 ], [ 119.997835170733268, 12.005953620800724, 0.0 ], [ 119.997831992475099, 12.005962882534474, 0.0 ], [ 119.997791838953489, 12.005976693239285, 0.0 ], [ 119.9977796598628, 12.005977285231282, 0.0 ], [ 119.99776413644139, 12.005983772257405, 0.0 ], [ 119.99776413644139, 12.005983772257405, 0.0 ], [ 119.99776413644139, 12.005983772257405, 0.0 ], [ 119.99776413644139, 12.005983772257405, 0.0 ], [ 119.997753687542655, 12.006002017031104, 0.0 ], [ 119.997755761128857, 12.006019988711381, 0.0 ], [ 119.997753973939766, 12.006049074974532, 0.0 ], [ 119.997748248881351, 12.006061132315113, 0.0 ], [ 119.997738917259653, 12.006064923447417, 0.0 ], [ 119.997728149138581, 12.006065961689375, 0.0 ], [ 119.997719270824561, 12.006068363812336, 0.0 ], [ 119.997680166319526, 12.006071090075645, 0.0 ], [ 119.997635619045738, 12.006069030183186, 0.0 ], [ 119.997600421262547, 12.006064793802937, 0.0 ], [ 119.997600421262547, 12.006064793802937, 0.0 ], [ 119.997597538822021, 12.006063728929165, 0.0 ], [ 119.997597538822021, 12.006063728929165, 0.0 ], [ 119.997595251093742, 12.006063465097457, 0.0 ], [ 119.997595251093742, 12.006063465097457, 0.0 ], [ 119.997589053834403, 12.006059321437631, 0.0 ], [ 119.997592003932269, 12.0059870834317, 0.0 ], [ 119.997584473384563, 12.005893940728994, 0.0 ], [ 119.997546223910703, 12.005873612847687, 0.0 ], [ 119.99749464185615, 12.005804109200582, 0.0 ], [ 119.99749464185615, 12.005804109200582, 0.0 ], [ 119.99749464185615, 12.005804109200582, 0.0 ], [ 119.99749464185615, 12.005804109200582, 0.0 ], [ 119.99749464185615, 12.005804109200582, 0.0 ], [ 119.99749464185615, 12.005804109200582, 0.0 ], [ 119.99749464185615, 12.005804109200582, 0.0 ], [ 119.99749464185615, 12.005804109200582, 0.0 ], [ 119.997466494806361, 12.005784036789747, 0.0 ], [ 119.997466494806361, 12.005784036789747, 0.0 ], [ 119.997455043686372, 12.005765704272475, 0.0 ], [ 119.997439894630148, 12.005752025232297, 0.0 ], [ 119.997421944048057, 12.005739298995785, 0.0 ], [ 119.997417063858677, 12.005721818783798, 0.0 ], [ 119.997412153044593, 12.005701570604112, 0.0 ], [ 119.997404810327737, 12.005624446143758, 0.0 ], [ 119.997404810327737, 12.005624446143758, 0.0 ], [ 119.997404810327737, 12.005624446143758, 0.0 ], [ 119.997333527729211, 12.005523298330964, 0.0 ], [ 119.997333527729211, 12.005523298330964, 0.0 ], [ 119.997333527729211, 12.005523298330964, 0.0 ], [ 119.997333527729211, 12.005523298330964, 0.0 ], [ 119.997333527729211, 12.005523298330964, 0.0 ], [ 119.997333527729211, 12.005523298330964, 0.0 ], [ 119.997314978799324, 12.005444783086935, 0.0 ], [ 119.997274641902649, 12.005430367862141, 0.0 ], [ 119.997250899457285, 12.005402478077427, 0.0 ], [ 119.99722514727091, 12.005354951558521, 0.0 ], [ 119.997184078587466, 12.005335832622107, 0.0 ], [ 119.997162132247553, 12.005319175396629, 0.0 ], [ 119.997141876455672, 12.005299664537118, 0.0 ], [ 119.997141876455672, 12.005299664537118, 0.0 ], [ 119.997141876455672, 12.005299664537118, 0.0 ], [ 119.997143173948515, 12.005272031388634, 0.0 ], [ 119.997145847884482, 12.005242016119853, 0.0 ], [ 119.997146071486782, 12.005207884235841, 0.0 ], [ 119.997146071486782, 12.005207884235841, 0.0 ], [ 119.997135315742497, 12.005175288501698, 0.0 ], [ 119.997135315742497, 12.005175288501698, 0.0 ], [ 119.997135315742497, 12.005175288501698, 0.0 ], [ 119.997135315742497, 12.005175288501698, 0.0 ], [ 119.997135315742497, 12.005175288501698, 0.0 ], [ 119.997115406700161, 12.005171321584067, 0.0 ], [ 119.997101754974395, 12.005169100580529, 0.0 ], [ 119.997079295451712, 12.005167763124735, 0.0 ], [ 119.997079295451712, 12.005167763124735, 0.0 ], [ 119.997052819688463, 12.005165679603156, 0.0 ], [ 119.996955652685685, 12.005175288501698, 0.0 ], [ 119.996865821157272, 12.005175288501698, 0.0 ], [ 119.996775989628858, 12.005175288501698, 0.0 ], [ 119.996775989628858, 12.005175288501698, 0.0 ], [ 119.996775989628858, 12.005175288501698, 0.0 ], [ 119.996775989628858, 12.005175288501698, 0.0 ], [ 119.996775989628858, 12.005175288501698, 0.0 ], [ 119.996775989628858, 12.005175288501698, 0.0 ], [ 119.996775989628858, 12.005175288501698, 0.0 ], [ 119.996775989628858, 12.005175288501698, 0.0 ], [ 119.996775989628858, 12.005175288501698, 0.0 ], [ 119.996775989628858, 12.005175288501698, 0.0 ], [ 119.996775989628858, 12.005175288501698, 0.0 ], [ 119.996775989628858, 12.005175288501698, 0.0 ], [ 119.996775989628858, 12.005175288501698, 0.0 ], [ 119.996775989628858, 12.005175288501698, 0.0 ], [ 119.996743417278424, 12.00515692637617, 0.0 ], [ 119.996724651989098, 12.005155282001262, 0.0 ], [ 119.996712416790004, 12.005150799328023, 0.0 ], [ 119.996701943817186, 12.005136147339599, 0.0 ], [ 119.996686158100445, 12.005085456973285, 0.0 ], [ 119.996652462140204, 12.005069315843214, 0.0 ], [ 119.996621441251335, 12.005061343468997, 0.0 ], [ 119.9966053244151, 12.005044906440309, 0.0 ], [ 119.996596326572032, 12.004995625444874, 0.0 ], [ 119.996596326572032, 12.004995625444874, 0.0 ], [ 119.996578614003283, 12.004979006535503, 0.0 ], [ 119.996559194684622, 12.004962643137741, 0.0 ], [ 119.996559194684622, 12.004962643137741, 0.0 ], [ 119.996559194684622, 12.004962643137741, 0.0 ], [ 119.996506495043619, 12.004905793916462, 0.0 ], [ 119.996506495043619, 12.004905793916462, 0.0 ], [ 119.996506495043619, 12.004905793916462, 0.0 ], [ 119.996479818434949, 12.004888527401222, 0.0 ], [ 119.996469329096143, 12.004882326858484, 0.0 ], [ 119.996458769944709, 12.004869814091116, 0.0 ], [ 119.996416663515205, 12.004815962388051, 0.0 ], [ 119.996416663515205, 12.004815962388051, 0.0 ], [ 119.996416663515205, 12.004815962388051, 0.0 ], [ 119.996416663515205, 12.004815962388051, 0.0 ], [ 119.996366438826414, 12.0047840003395, 0.0 ], [ 119.996351575483388, 12.004744703562956, 0.0 ], [ 119.996350790126101, 12.00467369103375, 0.0 ], [ 119.996354326420558, 12.004631040564332, 0.0 ], [ 119.996359500622347, 12.004591529026788, 0.0 ], [ 119.996366426170226, 12.004565413786461, 0.0 ], [ 119.996416663515205, 12.004546467802815, 0.0 ], [ 119.996416663515205, 12.004546467802815, 0.0 ], [ 119.996416663515205, 12.00436680474599, 0.0 ], [ 119.996392035393001, 12.00434418525931, 0.0 ], [ 119.996347499122962, 12.004303628257039, 0.0 ], [ 119.996326831986792, 12.004276973217578, 0.0 ], [ 119.996326831986792, 12.004276973217578, 0.0 ], [ 119.996302989043201, 12.004265438328853, 0.0 ], [ 119.996278876411822, 12.004259581057626, 0.0 ], [ 119.996259138998255, 12.004232567888492, 0.0 ], [ 119.996248677737469, 12.00421078187548, 0.0 ], [ 119.996244007721828, 12.004187158272789, 0.0 ], [ 119.996237532151113, 12.004163356739527, 0.0 ], [ 119.996238176593025, 12.00414914564197, 0.0 ], [ 119.996237000458379, 12.004097310160754, 0.0 ], [ 119.996237000458379, 12.004097310160754, 0.0 ], [ 119.996237000458379, 12.004097310160754, 0.0 ], [ 119.996237000458379, 12.004097310160754, 0.0 ], [ 119.996237000458379, 12.004097310160754, 0.0 ], [ 119.996237000458379, 12.004097310160754, 0.0 ], [ 119.996237000458379, 12.004097310160754, 0.0 ], [ 119.996237000458379, 12.004097310160754, 0.0 ], [ 119.996237000458379, 12.004097310160754, 0.0 ], [ 119.996237000458379, 12.004097310160754, 0.0 ], [ 119.996237000458379, 12.004097310160754, 0.0 ], [ 119.996237000458379, 12.004097310160754, 0.0 ], [ 119.996237000458379, 12.004097310160754, 0.0 ], [ 119.996237000458379, 12.004097310160754, 0.0 ], [ 119.996237000458379, 12.004097310160754, 0.0 ], [ 119.996237000458379, 12.004097310160754, 0.0 ], [ 119.996237000458379, 12.004097310160754, 0.0 ], [ 119.996242922040381, 12.003998372535278, 0.0 ], [ 119.996241440580519, 12.003973136516528, 0.0 ], [ 119.996242398520764, 12.003951030841943, 0.0 ], [ 119.996244244599922, 12.00390050726698, 0.0 ], [ 119.99625273825545, 12.00387121873805, 0.0 ], [ 119.996272643633333, 12.003849326507888, 0.0 ], [ 119.996326831986792, 12.003827815575519, 0.0 ], [ 119.996326831986792, 12.003827815575519, 0.0 ], [ 119.996326831986792, 12.003827815575519, 0.0 ], [ 119.996326831986792, 12.003827815575519, 0.0 ], [ 119.996326831986792, 12.003827815575519, 0.0 ], [ 119.996326831986792, 12.003827815575519, 0.0 ], [ 119.996326831986792, 12.003827815575519, 0.0 ], [ 119.996326831986792, 12.003827815575519, 0.0 ], [ 119.996326831986792, 12.003827815575519, 0.0 ], [ 119.996326831986792, 12.003827815575519, 0.0 ], [ 119.996326831986792, 12.003827815575519, 0.0 ], [ 119.996326831986792, 12.003827815575519, 0.0 ], [ 119.996327075741519, 12.003779673073788, 0.0 ], [ 119.996326831986792, 12.003737984047106, 0.0 ], [ 119.996323868509137, 12.003707108250579, 0.0 ], [ 119.996327226579865, 12.003684582294298, 0.0 ], [ 119.996331438501002, 12.003666781917538, 0.0 ], [ 119.996325632086965, 12.003624364484335, 0.0 ], [ 119.996327922142711, 12.003602506184507, 0.0 ], [ 119.99632836965398, 12.003534242362388, 0.0 ], [ 119.99632836965398, 12.003534242362388, 0.0 ], [ 119.996326831986792, 12.00346848946187, 0.0 ], [ 119.996326831986792, 12.00346848946187, 0.0 ], [ 119.996326831986792, 12.00346848946187, 0.0 ], [ 119.996326831986792, 12.00346848946187, 0.0 ], [ 119.996326831986792, 12.00346848946187, 0.0 ], [ 119.996326831986792, 12.00346848946187, 0.0 ], [ 119.996326831986792, 12.00346848946187, 0.0 ], [ 119.996337384089216, 12.003373246129208, 0.0 ], [ 119.996354976000134, 12.003331712999966, 0.0 ], [ 119.996354976000134, 12.003331712999966, 0.0 ], [ 119.996354976000134, 12.003331712999966, 0.0 ], [ 119.9963732020002, 12.003302688000133, 0.0 ], [ 119.996411287621328, 12.003283013023523, 0.0 ], [ 119.996411287621328, 12.003283013023523, 0.0 ], [ 119.996416379724053, 12.003266403537575, 0.0 ], [ 119.996416418698942, 12.003240110020513, 0.0 ], [ 119.996416418698942, 12.003240110020513, 0.0 ], [ 119.996416418698942, 12.003240110020513, 0.0 ], [ 119.996416418698942, 12.003240110020513, 0.0 ], [ 119.996416418698942, 12.003240110020513, 0.0 ], [ 119.996419625433134, 12.003202096733068, 0.0 ], [ 119.996419625433134, 12.003202096733068, 0.0 ], [ 119.996417123238245, 12.003154731048461, 0.0 ], [ 119.996429429187188, 12.003134473585636, 0.0 ], [ 119.99644383534573, 12.003125230224445, 0.0 ], [ 119.996479313376469, 12.003113164187205, 0.0 ], [ 119.996501133234091, 12.003119285685624, 0.0 ], [ 119.996501133234091, 12.003119285685624, 0.0 ], [ 119.996529494748998, 12.003110695955186, 0.0 ], [ 119.996563049383241, 12.003113950821627, 0.0 ], [ 119.996596326572032, 12.003109163348222, 0.0 ], [ 119.99661422088991, 12.003016277017727, 0.0 ], [ 119.996622466449963, 12.003000800777091, 0.0 ], [ 119.99663112148302, 12.002986109269434, 0.0 ], [ 119.996640639091609, 12.002976932367652, 0.0 ], [ 119.996640639091609, 12.002976932367652, 0.0 ], [ 119.996640639091609, 12.002976932367652, 0.0 ], [ 119.996640639091609, 12.002976932367652, 0.0 ], [ 119.996640639091609, 12.002976932367652, 0.0 ], [ 119.996640639091609, 12.002976932367652, 0.0 ], [ 119.996664195970823, 12.002968788681956, 0.0 ], [ 119.996700123682373, 12.002955777679746, 0.0 ], [ 119.996717625706864, 12.002943753276766, 0.0 ], [ 119.996775989628858, 12.002929500291399, 0.0 ], [ 119.996798880908045, 12.002897902475809, 0.0 ], [ 119.996865821157272, 12.002839668762988, 0.0 ], [ 119.996885291453452, 12.00273836292641, 0.0 ], [ 119.996895326935658, 12.00270353402526, 0.0 ], [ 119.996915207241386, 12.002689116760637, 0.0 ], [ 119.997045484214084, 12.002660005706163, 0.0 ], [ 119.997082699524654, 12.002540544946628, 0.0 ], [ 119.997135315742497, 12.002480342649338, 0.0 ], [ 119.997145266398093, 12.002435710308376, 0.0 ], [ 119.997147382896429, 12.002409646622626, 0.0 ], [ 119.997147290580898, 12.002365062264586, 0.0 ], [ 119.99714418427952, 12.00233787087889, 0.0 ], [ 119.99714553419247, 12.002314971894769, 0.0 ], [ 119.997161420078129, 12.00230178111852, 0.0 ], [ 119.997188261393518, 12.00230070429061, 0.0 ], [ 119.99722514727091, 12.002300679592516, 0.0 ], [ 119.997253212932677, 12.002302770001279, 0.0 ], [ 119.997284823935985, 12.002298090992412, 0.0 ], [ 119.997300069770603, 12.002299505811154, 0.0 ], [ 119.997326527789568, 12.002300011320894, 0.0 ], [ 119.997373850825156, 12.0023026605292, 0.0 ], [ 119.997404810327737, 12.002300679592516, 0.0 ], [ 119.9974182980948, 12.00226272802146, 0.0 ], [ 119.997419856728285, 12.002222466141406, 0.0 ], [ 119.99746587277626, 12.002215659895457, 0.0 ], [ 119.99749464185615, 12.002210848064104, 0.0 ], [ 119.99749172857733, 12.002161722499643, 0.0 ], [ 119.99749221587706, 12.002133308920719, 0.0 ], [ 119.997494854557061, 12.002081987771119, 0.0 ], [ 119.99749681393105, 12.002041721597259, 0.0 ], [ 119.997493815982622, 12.001988093507753, 0.0 ], [ 119.997492455932687, 12.001937604344075, 0.0 ], [ 119.997494598587082, 12.001913907746077, 0.0 ], [ 119.997497499096852, 12.001886257419278, 0.0 ], [ 119.997501295673331, 12.001794678687393, 0.0 ], [ 119.997524371694297, 12.001706838894144, 0.0 ], [ 119.99751931837821, 12.001684797676036, 0.0 ], [ 119.997506223964891, 12.001660475290944, 0.0 ], [ 119.997493068463825, 12.001630629712508, 0.0 ], [ 119.997451895671659, 12.001604240941374, 0.0 ], [ 119.997431795000125, 12.001535927000077, 0.0 ], [ 119.997380265000174, 12.001463715000114, 0.0 ], [ 119.997339141000111, 12.001419836000139, 0.0 ], [ 119.997273876671983, 12.001378455116248, 0.0 ], [ 119.997211014885579, 12.0013518496266, 0.0 ], [ 119.997172223396106, 12.001340442461142, 0.0 ], [ 119.997123108344965, 12.00132787713275, 0.0 ], [ 119.997010094436945, 12.001433410128961, 0.0 ], [ 119.996589022798986, 12.001747580835165, 0.0 ], [ 119.996283143013798, 12.001932143233944, 0.0 ], [ 119.995837753051248, 12.002207617641561, 0.0 ], [ 119.995541915953453, 12.002332373130141, 0.0 ], [ 119.995142717424002, 12.002562729683268, 0.0 ], [ 119.994974315565003, 12.002636964006522, 0.0 ], [ 119.994718194326154, 12.002762839125586, 0.0 ], [ 119.994439762810856, 12.002867223836454, 0.0 ], [ 119.994241933938014, 12.002941772950619, 0.0 ], [ 119.994046231099134, 12.003028954158806, 0.0 ], [ 119.993867976989065, 12.003152710205965, 0.0 ], [ 119.993671796631034, 12.003281058515155, 0.0 ], [ 119.993492340438181, 12.003445005167409, 0.0 ], [ 119.993281036365602, 12.003623855180408, 0.0 ], [ 119.993113553144696, 12.003781374001754, 0.0 ], [ 119.992946269722012, 12.003956998280296, 0.0 ], [ 119.992844756215334, 12.004092081617056, 0.0 ], [ 119.992776747661864, 12.004263021594033, 0.0 ], [ 119.992716735697201, 12.004491820473914, 0.0 ], [ 119.992698365461322, 12.004827008773471, 0.0 ], [ 119.992704765433501, 12.005406385266935, 0.0 ], [ 119.992754228004671, 12.006220700220823, 0.0 ], [ 119.992710249632111, 12.006568838038824, 0.0 ], [ 119.992482672374535, 12.006947913766545, 0.0 ], [ 119.992361111111109, 12.007137393144241, 0.0 ], [ 119.992361111111109, 12.007351068389267, 0.0 ], [ 119.992409348671544, 12.007636789787838, 0.0 ], [ 119.992603025301648, 12.007852008045743, 0.0 ], [ 119.992849640185966, 12.008197034321173, 0.0 ], [ 119.992957757092853, 12.008659432383338, 0.0 ], [ 119.993103218882084, 12.009172131760241, 0.0 ], [ 119.993225133803918, 12.009884267215256, 0.0 ], [ 119.993300400850856, 12.010694444444445, 0.0 ], [ 119.993331347998136, 12.01150557422474, 0.0 ], [ 119.993422221788961, 12.012404550363934, 0.0 ], [ 119.99350393326695, 12.012807475219329, 0.0 ], [ 119.993647157927498, 12.013117391924935, 0.0 ], [ 119.993829044129427, 12.013263925493051, 0.0 ], [ 119.994028361724801, 12.013323355470389, 0.0 ], [ 119.994439052987062, 12.013472222222223, 0.0 ], [ 119.994904001971577, 12.013661636272234, 0.0 ], [ 119.995480085575451, 12.013858265137872, 0.0 ], [ 119.996403585772597, 12.014150701736961, 0.0 ], [ 119.997139822288901, 12.014240641336357, 0.0 ], [ 119.997955317712425, 12.014130488559831, 0.0 ], [ 119.998467815016667, 12.013900454459444, 0.0 ], [ 119.999114179530608, 12.013799356903593, 0.0 ], [ 119.999887295625456, 12.013849000241002, 0.0 ], [ 120.000343824327402, 12.013880312624607, 0.0 ], [ 120.000694444444434, 12.014163364998183, 0.0 ], [ 120.000932745829019, 12.014571126677291, 0.0 ], [ 120.001163474593554, 12.015140845547247, 0.0 ], [ 120.001355452476673, 12.015533526724379, 0.0 ], [ 120.001455589732842, 12.015938059039399, 0.0 ], [ 120.001625855413209, 12.016694934056385, 0.0 ], [ 120.001807241883995, 12.017127564828634, 0.0 ], [ 120.001935041592347, 12.017372453287734, 0.0 ], [ 120.002187769673768, 12.017603323474676, 0.0 ], [ 120.002468327920056, 12.01785562313003, 0.0 ], [ 120.002758736894805, 12.018000982265384, 0.0 ], [ 120.00375, 12.018471197254296, 0.0 ], [ 120.005291218604569, 12.019027777777778, 0.0 ], [ 120.00625, 12.019911579449529, 0.0 ], [ 120.006513787909668, 12.020216768835709, 0.0 ], [ 120.006899652869834, 12.020509575612035, 0.0 ], [ 120.007638888888877, 12.021137387348686, 0.0 ], [ 120.008174643051433, 12.021357754882187, 0.0 ], [ 120.008717700630896, 12.021527777777777, 0.0 ], [ 120.009190062193298, 12.021690853044372, 0.0 ], [ 120.009686302692486, 12.021805555555556, 0.0 ], [ 120.010118133614796, 12.021838162111678, 0.0 ], [ 120.010517190493189, 12.022014522429878, 0.0 ], [ 120.01085398691518, 12.022293381774437, 0.0 ], [ 120.010972222222222, 12.022557835243678, 0.0 ], [ 120.011088731057484, 12.0229970781318, 0.0 ], [ 120.011413297449593, 12.024437306978388, 0.0 ], [ 120.011637056250862, 12.025369232097836, 0.0 ], [ 120.011917658094788, 12.026119469764387, 0.0 ], [ 120.012637014244874, 12.027285060889691, 0.0 ], [ 120.0135304778711, 12.028115196831511, 0.0 ], [ 120.013910555207403, 12.02865405393071, 0.0 ], [ 120.014658834374401, 12.02946544390575, 0.0 ], [ 120.015368600100004, 12.03041696431192, 0.0 ], [ 120.015962707103299, 12.03173439723648, 0.0 ], [ 120.017304087665622, 12.033342670271155, 0.0 ], [ 120.017927933149466, 12.034222806801129, 0.0 ], [ 120.018472222222215, 12.034971785528231, 0.0 ], [ 120.019472199850995, 12.03579726353253, 0.0 ], [ 120.020711617090129, 12.036662807284895, 0.0 ], [ 120.021394367141767, 12.037437181447258, 0.0 ], [ 120.022236180376296, 12.03783583306603, 0.0 ], [ 120.022505098599495, 12.03797888249327, 0.0 ], [ 120.022810690484803, 12.037976993883531, 0.0 ], [ 120.023203461140497, 12.03778564274926, 0.0 ], [ 120.023530567661453, 12.037562570136457, 0.0 ], [ 120.023771334785152, 12.037378887852979, 0.0 ], [ 120.024281174733389, 12.037159531342882, 0.0 ], [ 120.024855082222942, 12.037153306466864, 0.0 ], [ 120.02542950428932, 12.037193061181048, 0.0 ], [ 120.026254886424539, 12.037591412302502, 0.0 ], [ 120.027267771834687, 12.038194444444445, 0.0 ], [ 120.028397229504108, 12.038776934468634, 0.0 ], [ 120.028922833433896, 12.039224517738051, 0.0 ], [ 120.02974032384067, 12.039583333333333, 0.0 ], [ 120.030526509424888, 12.039583333333333, 0.0 ], [ 120.031305710398485, 12.039583333333333, 0.0 ], [ 120.031829393397913, 12.039518113490614, 0.0 ], [ 120.032361111111101, 12.039465427575609, 0.0 ], [ 120.03284702386172, 12.039204851235906, 0.0 ], [ 120.033504070060062, 12.038875800899266, 0.0 ], [ 120.034152449084957, 12.038369469076674, 0.0 ], [ 120.034329345348198, 12.038075204450761, 0.0 ], [ 120.034547310156626, 12.037277931606239, 0.0 ], [ 120.034440718748044, 12.036700981819173, 0.0 ], [ 120.034217010150698, 12.036168590422083, 0.0 ], [ 120.033918165754613, 12.035766245041033, 0.0 ], [ 120.033558105137402, 12.035694444444445, 0.0 ], [ 120.033289338760127, 12.035800356717658, 0.0 ], [ 120.032901847500767, 12.035765154433198, 0.0 ], [ 120.032516082012236, 12.035694444444445, 0.0 ], [ 120.032150904375527, 12.035457986888257, 0.0 ], [ 120.031520375824812, 12.035175785847647, 0.0 ], [ 120.030507369570373, 12.034583333333334, 0.0 ], [ 120.030208522451403, 12.034305555555555, 0.0 ], [ 120.029796924719037, 12.033847775652482, 0.0 ], [ 120.028354594500655, 12.033118548069302, 0.0 ], [ 120.028159777494167, 12.032679739721969, 0.0 ], [ 120.027895390598559, 12.032000711114, 0.0 ], [ 120.027860453539745, 12.031646857381814, 0.0 ], [ 120.028184111457563, 12.029602896314907, 0.0 ], [ 120.027692285539359, 12.028404718792109, 0.0 ], [ 120.027145302767451, 12.027086133400314, 0.0 ], [ 120.026585859026525, 12.026076138658917, 0.0 ], [ 120.024717940094774, 12.026234928822435, 0.0 ], [ 120.024712748016029, 12.02622322749831, 0.0 ], [ 120.024543631690079, 12.02542358276883, 0.0 ], [ 120.024398564799242, 12.024387175486019, 0.0 ], [ 120.024486509756997, 12.023751648859481, 0.0 ], [ 120.024337127745994, 12.023070658468066, 0.0 ], [ 120.024277428086734, 12.022506329060857, 0.0 ], [ 120.024268129656292, 12.02107756555483, 0.0 ], [ 120.02419126786468, 12.020171808258961, 0.0 ], [ 120.024168231050481, 12.01930488482102, 0.0 ], [ 120.02387725878998, 12.018946713717172, 0.0 ], [ 120.0235227143814, 12.018871718753351, 0.0 ], [ 120.023150169488602, 12.018768505084228, 0.0 ], [ 120.022887308513276, 12.018761003683931, 0.0 ], [ 120.022617556506717, 12.018763923583629, 0.0 ], [ 120.022320355989137, 12.018818875128051, 0.0 ], [ 120.022188887700636, 12.018968604499889, 0.0 ], [ 120.022111200960282, 12.019228119463289, 0.0 ], [ 120.021865818617457, 12.019530837138348, 0.0 ], [ 120.021443076219015, 12.019638881413986, 0.0 ], [ 120.02118155219739, 12.019586855696582, 0.0 ], [ 120.020935978156658, 12.019422375942744, 0.0 ], [ 120.020665719865605, 12.019112861893401, 0.0 ], [ 120.020590992168977, 12.018837623359131, 0.0 ], [ 120.02055469018417, 12.018472222222222, 0.0 ], [ 120.020416666666662, 12.018095466117312, 0.0 ], [ 120.020292292741047, 12.017785203034618, 0.0 ], [ 120.020146913528436, 12.017361111111111, 0.0 ], [ 120.019956507747963, 12.017035573528775, 0.0 ], [ 120.019836082933864, 12.016805555555555, 0.0 ], [ 120.019588863114393, 12.016506555417228, 0.0 ], [ 120.019372620105059, 12.016265820931483, 0.0 ], [ 120.019168714436248, 12.016084078519292, 0.0 ], [ 120.01875, 12.015796525347726, 0.0 ], [ 120.018328697578355, 12.015114297864963, 0.0 ], [ 120.018225829808287, 12.014267940425229, 0.0 ], [ 120.018194444444433, 12.013405431266856, 0.0 ], [ 120.017916666666665, 12.013018644408881, 0.0 ], [ 120.017501827526658, 12.012638888888889, 0.0 ], [ 120.01680555555555, 12.011766054973629, 0.0 ], [ 120.016456147386165, 12.011317624257757, 0.0 ], [ 120.016342534614736, 12.011003512898201, 0.0 ], [ 120.01625, 12.010314849264203, 0.0 ], [ 120.016138252258813, 12.009601691287207, 0.0 ], [ 120.016145787331894, 12.008956990259074, 0.0 ], [ 120.016117487506506, 12.00777924156441, 0.0 ], [ 120.015826523935672, 12.006715130339728, 0.0 ], [ 120.015563420333223, 12.005551858373366, 0.0 ], [ 120.015427616623882, 12.005249120512236, 0.0 ], [ 120.015224393095124, 12.00487841215892, 0.0 ], [ 120.015203374129285, 12.004843904807304, 0.0 ], [ 120.0151626680737, 12.004814303739604, 0.0 ], [ 120.015135098266356, 12.004812924232041, 0.0 ], [ 120.01510372797641, 12.004812177542398, 0.0 ], [ 120.015052833489378, 12.004812726443047, 0.0 ], [ 120.015027386244924, 12.004813000889913, 0.0 ], [ 120.015006534385265, 12.004812042110293, 0.0 ], [ 120.014989487398452, 12.004810845017193, 0.0 ], [ 120.01483212683965, 12.004815962388051, 0.0 ], [ 120.01483212683965, 12.004815962388051, 0.0 ], [ 120.01483212683965, 12.004815962388051, 0.0 ], [ 120.014811691088809, 12.004851823362486, 0.0 ], [ 120.014779930074013, 12.004878995594753, 0.0 ], [ 120.014762886841027, 12.004896145241108, 0.0 ], [ 120.014742295311251, 12.004905793916462, 0.0 ], [ 120.014720785482609, 12.004930530963962, 0.0 ], [ 120.014690557188331, 12.004951373785984, 0.0 ], [ 120.014657114154232, 12.00497146216312, 0.0 ], [ 120.014628330794807, 12.004978085428357, 0.0 ], [ 120.014599494756297, 12.004979974602101, 0.0 ], [ 120.014599494756297, 12.004979974602101, 0.0 ], [ 120.014599494756297, 12.004979974602101, 0.0 ], [ 120.014599494756297, 12.004979974602101, 0.0 ], [ 120.01456907329775, 12.004983459088161, 0.0 ], [ 120.01452620242172, 12.004984710487808, 0.0 ], [ 120.014496983193141, 12.004988182002387, 0.0 ], [ 120.014463311878202, 12.004987755973154, 0.0 ], [ 120.014437673010235, 12.004988821545869, 0.0 ], [ 120.014411215094583, 12.004988317728705, 0.0 ], [ 120.014350328265166, 12.004991341583292, 0.0 ], [ 120.014293137669185, 12.004995625444874, 0.0 ], [ 120.014279677396104, 12.00501735488567, 0.0 ], [ 120.014248391659621, 12.005051229381653, 0.0 ], [ 120.014221743671968, 12.005069666230813, 0.0 ], [ 120.014182155804065, 12.005080375400713, 0.0 ], [ 120.014144527228396, 12.005081940876597, 0.0 ], [ 120.014104827164317, 12.005080001588537, 0.0 ], [ 120.014070358726343, 12.005079978663582, 0.0 ], [ 120.014052712789734, 12.005078985251179, 0.0 ], [ 120.014023643083945, 12.005085456973285, 0.0 ], [ 120.013984251265768, 12.005085641693165, 0.0 ], [ 120.013933811555532, 12.005085456973285, 0.0 ], [ 120.013889735563339, 12.00512808895952, 0.0 ], [ 120.01385324007336, 12.005162019591836, 0.0 ], [ 120.013825609240357, 12.005200194757469, 0.0 ], [ 120.013802603016742, 12.005221748754719, 0.0 ], [ 120.013783159608849, 12.00523931879083, 0.0 ], [ 120.013770128120512, 12.005256819700858, 0.0 ], [ 120.01375414849872, 12.00526512003011, 0.0 ], [ 120.01375414849872, 12.00526512003011, 0.0 ], [ 120.01375414849872, 12.00526512003011, 0.0 ], [ 120.01375414849872, 12.00526512003011, 0.0 ], [ 120.01375414849872, 12.00526512003011, 0.0 ], [ 120.01375414849872, 12.00526512003011, 0.0 ], [ 120.01375414849872, 12.00526512003011, 0.0 ], [ 120.01375414849872, 12.00526512003011, 0.0 ], [ 120.01375414849872, 12.00526512003011, 0.0 ], [ 120.013718563654095, 12.005269212251058, 0.0 ], [ 120.013664855022739, 12.005269002146196, 0.0 ], [ 120.013574485441893, 12.00526512003011, 0.0 ], [ 120.013574485441893, 12.00526512003011, 0.0 ], [ 120.013304990856653, 12.00526512003011, 0.0 ], [ 120.013304990856653, 12.00526512003011, 0.0 ], [ 120.013304990856653, 12.00526512003011, 0.0 ], [ 120.013304990856653, 12.00526512003011, 0.0 ], [ 120.013278767647051, 12.005221871879559, 0.0 ], [ 120.013250601393466, 12.005211917046404, 0.0 ], [ 120.013208325689007, 12.005194617742953, 0.0 ], [ 120.013180573348507, 12.005185842105496, 0.0 ], [ 120.013141168681884, 12.005174430172687, 0.0 ], [ 120.013125327799827, 12.005175288501698, 0.0 ], [ 120.013125327799827, 12.005175288501698, 0.0 ], [ 120.013125327799827, 12.005175288501698, 0.0 ], [ 120.013125327799827, 12.005175288501698, 0.0 ], [ 120.013125327799827, 12.005175288501698, 0.0 ], [ 120.013125327799827, 12.005175288501698, 0.0 ], [ 120.013125327799827, 12.005175288501698, 0.0 ], [ 120.013035496271414, 12.005175288501698, 0.0 ], [ 120.012945664743, 12.005175288501698, 0.0 ], [ 120.012855833214587, 12.005175288501698, 0.0 ], [ 120.012855833214587, 12.005175288501698, 0.0 ], [ 120.012855833214587, 12.005175288501698, 0.0 ], [ 120.012855833214587, 12.005175288501698, 0.0 ], [ 120.012855833214587, 12.005175288501698, 0.0 ], [ 120.012855833214587, 12.005175288501698, 0.0 ], [ 120.012855833214587, 12.005175288501698, 0.0 ], [ 120.012855833214587, 12.005175288501698, 0.0 ], [ 120.012766001686188, 12.005175288501698, 0.0 ], [ 120.012766001686188, 12.005175288501698, 0.0 ], [ 120.012766001686188, 12.005175288501698, 0.0 ], [ 120.012766001686188, 12.005175288501698, 0.0 ], [ 120.012766001686188, 12.005175288501698, 0.0 ], [ 120.012766001686188, 12.005175288501698, 0.0 ], [ 120.012766001686188, 12.005175288501698, 0.0 ], [ 120.012676170157775, 12.005175288501698, 0.0 ], [ 120.012676170157775, 12.005175288501698, 0.0 ], [ 120.012676170157775, 12.005175288501698, 0.0 ], [ 120.012676170157775, 12.005175288501698, 0.0 ], [ 120.01241963836388, 12.005165240324297, 0.0 ], [ 120.01241963836388, 12.005165240324297, 0.0 ], [ 120.01241963836388, 12.005165240324297, 0.0 ], [ 120.01241963836388, 12.005165240324297, 0.0 ], [ 120.01241963836388, 12.005165240324297, 0.0 ], [ 120.01241963836388, 12.005165240324297, 0.0 ], [ 120.01241963836388, 12.005165240324297, 0.0 ], [ 120.01241963836388, 12.005165240324297, 0.0 ], [ 120.01241963836388, 12.005165240324297, 0.0 ], [ 120.01241963836388, 12.005165240324297, 0.0 ], [ 120.01241963836388, 12.005165240324297, 0.0 ], [ 120.01241963836388, 12.005165240324297, 0.0 ], [ 120.01241963836388, 12.005165240324297, 0.0 ], [ 120.01241963836388, 12.005165240324297, 0.0 ], [ 120.01241963836388, 12.005165240324297, 0.0 ], [ 120.01241963836388, 12.005165240324297, 0.0 ], [ 120.01241963836388, 12.005165240324297, 0.0 ], [ 120.01241963836388, 12.005165240324297, 0.0 ], [ 120.01241963836388, 12.005165240324297, 0.0 ], [ 120.01241963836388, 12.005165240324297, 0.0 ], [ 120.01241963836388, 12.005165240324297, 0.0 ], [ 120.01241963836388, 12.005165240324297, 0.0 ], [ 120.01241963836388, 12.005165240324297, 0.0 ], [ 120.01241963836388, 12.005165240324297, 0.0 ], [ 120.01241963836388, 12.005165240324297, 0.0 ], [ 120.01241963836388, 12.005165240324297, 0.0 ], [ 120.01241963836388, 12.005165240324297, 0.0 ], [ 120.01241963836388, 12.005165240324297, 0.0 ], [ 120.012394774596217, 12.005163930029298, 0.0 ], [ 120.012377864326339, 12.005157010251004, 0.0 ], [ 120.01235853203795, 12.00514853834828, 0.0 ], [ 120.012329494128593, 12.00513227991706, 0.0 ], [ 120.012344397854562, 12.005102922215356, 0.0 ], [ 120.012440532887908, 12.005097940739414, 0.0 ], [ 120.012496507100948, 12.005085456973285, 0.0 ], [ 120.012496507100948, 12.005085456973285, 0.0 ], [ 120.012496507100948, 12.005085456973285, 0.0 ], [ 120.012496507100948, 12.005085456973285, 0.0 ], [ 120.012496507100948, 12.005085456973285, 0.0 ], [ 120.012496507100948, 12.005085456973285, 0.0 ], [ 120.012496507100948, 12.005085456973285, 0.0 ], [ 120.012496507100948, 12.005085456973285, 0.0 ], [ 120.012496507100948, 12.005085456973285, 0.0 ], [ 120.012496507100948, 12.005085456973285, 0.0 ], [ 120.012496507100948, 12.005085456973285, 0.0 ], [ 120.012512044138361, 12.005041143263155, 0.0 ], [ 120.012509500845411, 12.004992640350913, 0.0 ], [ 120.012496507100948, 12.004905793916462, 0.0 ], [ 120.012488745731105, 12.004892252368663, 0.0 ], [ 120.012456245900594, 12.004889051581207, 0.0 ], [ 120.012422208887742, 12.004891785685915, 0.0 ], [ 120.012382112445138, 12.004890244969619, 0.0 ], [ 120.012332376186649, 12.004886835341965, 0.0 ], [ 120.01230489742693, 12.004866614545811, 0.0 ], [ 120.012283856910287, 12.004848691706545, 0.0 ], [ 120.012264261470122, 12.004816549295471, 0.0 ], [ 120.012260774788018, 12.004791335310774, 0.0 ], [ 120.012249132847927, 12.00475358342103, 0.0 ], [ 120.012227012515709, 12.004726130859638, 0.0 ], [ 120.012227012515709, 12.004726130859638, 0.0 ], [ 120.012227012515709, 12.004726130859638, 0.0 ], [ 120.012227012515709, 12.004726130859638, 0.0 ], [ 120.012227012515709, 12.004726130859638, 0.0 ], [ 120.012227012515709, 12.004726130859638, 0.0 ], [ 120.012227012515709, 12.004726130859638, 0.0 ], [ 120.012227012515709, 12.004726130859638, 0.0 ], [ 120.012227012515709, 12.004726130859638, 0.0 ], [ 120.012227012515709, 12.004726130859638, 0.0 ], [ 120.012227012515709, 12.004726130859638, 0.0 ], [ 120.012227012515709, 12.004726130859638, 0.0 ], [ 120.012227012515709, 12.004726130859638, 0.0 ], [ 120.012227012515709, 12.004726130859638, 0.0 ], [ 120.012227012515709, 12.004726130859638, 0.0 ], [ 120.012227012515709, 12.004726130859638, 0.0 ], [ 120.012227012515709, 12.004726130859638, 0.0 ], [ 120.012227012515709, 12.004726130859638, 0.0 ], [ 120.012227012515709, 12.004726130859638, 0.0 ], [ 120.012227012515709, 12.004726130859638, 0.0 ], [ 120.012227012515709, 12.004726130859638, 0.0 ], [ 120.012227012515709, 12.004726130859638, 0.0 ], [ 120.012227012515709, 12.004726130859638, 0.0 ], [ 120.012227012515709, 12.004726130859638, 0.0 ], [ 120.012227012515709, 12.004726130859638, 0.0 ], [ 120.012227012515709, 12.004726130859638, 0.0 ], [ 120.012227012515709, 12.004726130859638, 0.0 ], [ 120.012227012515709, 12.004726130859638, 0.0 ], [ 120.012227012515709, 12.004726130859638, 0.0 ], [ 120.012202137637104, 12.004708321341536, 0.0 ], [ 120.012163569631412, 12.004700056674306, 0.0 ], [ 120.012155335429171, 12.004680417615695, 0.0 ], [ 120.012151910166679, 12.00466072674288, 0.0 ], [ 120.012137180987295, 12.004636299331226, 0.0 ], [ 120.012108018567289, 12.004615233922461, 0.0 ], [ 120.012079773449443, 12.004598177795314, 0.0 ], [ 120.012047349458882, 12.004546467802815, 0.0 ], [ 120.012047349458882, 12.004546467802815, 0.0 ], [ 120.012047349458882, 12.004546467802815, 0.0 ], [ 120.012047349458882, 12.004546467802815, 0.0 ], [ 120.012047349458882, 12.004546467802815, 0.0 ], [ 120.012047349458882, 12.004546467802815, 0.0 ], [ 120.012047349458882, 12.004546467802815, 0.0 ], [ 120.012047349458882, 12.004546467802815, 0.0 ], [ 120.012047349458882, 12.004546467802815, 0.0 ], [ 120.012047349458882, 12.004546467802815, 0.0 ], [ 120.012047349458882, 12.004546467802815, 0.0 ], [ 120.012047349458882, 12.004546467802815, 0.0 ], [ 120.012047349458882, 12.004546467802815, 0.0 ], [ 120.011962389203006, 12.004530395250248, 0.0 ], [ 120.011912847617182, 12.004508439318478, 0.0 ], [ 120.011902896435274, 12.004478560297574, 0.0 ], [ 120.011913292786545, 12.004404271831268, 0.0 ], [ 120.011904348149429, 12.004320722396624, 0.0 ], [ 120.011867686402056, 12.004276973217578, 0.0 ], [ 120.011802237880062, 12.004220816184214, 0.0 ], [ 120.011777854873657, 12.004187141689167, 0.0 ], [ 120.011688023345243, 12.004097310160754, 0.0 ], [ 120.011631960716798, 12.004045889524095, 0.0 ], [ 120.01159819181683, 12.004007478632342, 0.0 ], [ 120.011508360288417, 12.004007478632342, 0.0 ], [ 120.011418528760004, 12.004007478632342, 0.0 ], [ 120.01132869723159, 12.004007478632342, 0.0 ], [ 120.01132869723159, 12.004007478632342, 0.0 ], [ 120.01132869723159, 12.004007478632342, 0.0 ], [ 120.01132869723159, 12.004007478632342, 0.0 ], [ 120.011259915926601, 12.004014520656009, 0.0 ], [ 120.011225724137574, 12.004008721483908, 0.0 ], [ 120.011175589116775, 12.004007313850273, 0.0 ], [ 120.011151858414067, 12.004008218642801, 0.0 ], [ 120.011140194678006, 12.004071317077431, 0.0 ], [ 120.011135071079238, 12.004085005549621, 0.0 ], [ 120.011135071079238, 12.004085005549621, 0.0 ], [ 120.011123926430216, 12.004090968419257, 0.0 ], [ 120.011109470418461, 12.004095668544222, 0.0 ], [ 120.011075153447294, 12.004093441327083, 0.0 ], [ 120.011052089335365, 12.004094988137942, 0.0 ], [ 120.011038213355903, 12.004092540765175, 0.0 ], [ 120.011025634508854, 12.004088131808675, 0.0 ], [ 120.011025634508854, 12.004088131808675, 0.0 ], [ 120.011004900659358, 12.004073843404786, 0.0 ], [ 120.011004900659358, 12.004073843404786, 0.0 ], [ 120.011004900659358, 12.004073843404786, 0.0 ], [ 120.010988342090997, 12.004050949214266, 0.0 ], [ 120.010960687232696, 12.004038206057633, 0.0 ], [ 120.010920727706647, 12.004018573340398, 0.0 ], [ 120.010906195776485, 12.003994654163412, 0.0 ], [ 120.0108866585839, 12.003978814114694, 0.0 ], [ 120.010877490545923, 12.003931321397008, 0.0 ], [ 120.010877490545923, 12.003931321397008, 0.0 ], [ 120.010877490545923, 12.003931321397008, 0.0 ], [ 120.010865535027818, 12.003923659696088, 0.0 ], [ 120.01084038456608, 12.003915490888406, 0.0 ], [ 120.010813929758669, 12.003908634533522, 0.0 ], [ 120.010813929758669, 12.003908634533522, 0.0 ], [ 120.010804170291848, 12.003890886511108, 0.0 ], [ 120.010797671693268, 12.003869857349745, 0.0 ], [ 120.010791282790052, 12.003829026270877, 0.0 ], [ 120.010724979532171, 12.003794462013301, 0.0 ], [ 120.010696769634436, 12.003780561774876, 0.0 ], [ 120.010675781899636, 12.003767372873938, 0.0 ], [ 120.010648452398186, 12.003760565158426, 0.0 ], [ 120.01062993926719, 12.003753662503293, 0.0 ], [ 120.010610045004299, 12.003737984047106, 0.0 ], [ 120.010610045004299, 12.003737984047106, 0.0 ], [ 120.010610045004299, 12.003737984047106, 0.0 ], [ 120.010610045004299, 12.003737984047106, 0.0 ], [ 120.010520213475885, 12.003737984047106, 0.0 ], [ 120.010496664293342, 12.003734580688924, 0.0 ], [ 120.010475332120706, 12.003735464581956, 0.0 ], [ 120.01044756586694, 12.00371269102409, 0.0 ], [ 120.010430381947472, 12.003648152518695, 0.0 ], [ 120.010380377595396, 12.003601197982098, 0.0 ], [ 120.010340550419059, 12.003558320990283, 0.0 ], [ 120.010307743559679, 12.003540914999832, 0.0 ], [ 120.010276213796061, 12.003516791990753, 0.0 ], [ 120.010250718890646, 12.00346848946187, 0.0 ], [ 120.010160887362233, 12.00346848946187, 0.0 ], [ 120.010071055833819, 12.00346848946187, 0.0 ], [ 120.010071055833819, 12.00346848946187, 0.0 ], [ 120.009801561248594, 12.00346848946187, 0.0 ], [ 120.009801561248594, 12.00346848946187, 0.0 ], [ 120.009801561248594, 12.00346848946187, 0.0 ] ] ] ] } }
]
}
